{
 "cells": [
  {
   "cell_type": "code",
   "execution_count": 7,
   "metadata": {},
   "outputs": [
    {
     "name": "stdout",
     "output_type": "stream",
     "text": [
      "u_wind    97\n",
      "v_wind    97\n",
      "dtype: int64\n"
     ]
    }
   ],
   "source": [
    "import matplotlib.pyplot as plt\n",
    "import seaborn as sns\n",
    "import pandas as pd\n",
    "import numpy as np\n",
    "file_path = './data/METAR/train/2022-09-01.csv'\n",
    "fuser_df = pd.read_csv(file_path)\n",
    "nan_s = fuser_df.isnull().sum()\n",
    "print(nan_s[nan_s> 0])\n"
   ]
  },
  {
   "cell_type": "code",
   "execution_count": null,
   "metadata": {},
   "outputs": [],
   "source": [
    "import re\n",
    "import pandas as pd\n",
    "from datetime import datetime, timezone\n",
    "\n",
    "# Define cloud cover dictionary for sky cover conversion\n",
    "cloud_cover_dict = {\n",
    "    \"SKC\": 0,  # Sky Clear\n",
    "    \"CLR\": 0,  # Clear\n",
    "    \"NSC\": 0,  # No Significant Clouds\n",
    "    \"NCD\": 0,  # No Cloud Detected\n",
    "    \"FEW\": 1,  # Few (1/8 to 2/8 sky cover)\n",
    "    \"SCT\": 3,  # Scattered (3/8 to 4/8 sky cover)\n",
    "    \"BKN\": 5,  # Broken (5/8 to 7/8 sky cover)\n",
    "    \"OVC\": 8,  # Overcast (8/8 sky cover)\n",
    "    \"VV\": 9    # Vertical Visibility (obscured sky, treated as full overcast)\n",
    "}\n",
    "\n",
    "def parse_cloud_layers(cloud_layers):\n",
    "    \"\"\"Convert cloud layer codes to structured data for modeling.\"\"\"\n",
    "    parsed_layers = []\n",
    "    for layer in cloud_layers:\n",
    "        # Match cloud layer code, altitude, and CB flag if present\n",
    "        match = re.match(r\"([A-Z]{3})(\\d{3})?(CB)?\", layer)\n",
    "        if match:\n",
    "            cloud_code, altitude, cumulonimbus = match.groups()\n",
    "            sky_cover = cloud_cover_dict.get(cloud_code, None)  # Get sky cover value\n",
    "            altitude_ft = int(altitude) * 100 if altitude else None  # Convert altitude to feet if present\n",
    "            cb_flag = 1 if cumulonimbus else 0  # Cumulonimbus flag (1 for CB, 0 otherwise)\n",
    "\n",
    "            # Append the structured cloud data\n",
    "            parsed_layers.append({\n",
    "                \"sky_cover\": sky_cover,           # Numerical sky cover level\n",
    "                \"altitude_ft\": altitude_ft,       # Altitude in feet\n",
    "                \"cumulonimbus\": cb_flag           # Cumulonimbus presence (1 or 0)\n",
    "            })\n",
    "    return parsed_layers\n",
    "\n",
    "def parse_metar_line(date_time, line):\n",
    "    \"\"\"Parse a single METAR report line and convert cloud information for modeling.\"\"\"\n",
    "    # Enhanced METAR pattern to capture complex remarks and additional fields\n",
    "    metar_pattern = re.compile(\n",
    "        r'^(?P<station>[A-Z0-9]{4})\\s+'                        # Station code\n",
    "        r'(?P<datetime>\\d{2}\\d{4}Z)\\s+'                     # Date and time\n",
    "        r'(?P<cor>COR\\s+)?'                                 # Optional correction indicator\n",
    "        r'(?P<auto>AUTO\\s+)?'                               # Optional AUTO indicator\n",
    "        r'(?P<wind>(VRB|\\d{3}|/////)\\d{2}(G\\d{2})?(KT|MPS|KMH)?\\s*(\\d{3}V\\d{3})?)?\\s*'  # Wind information\n",
    "        r'(?P<visibility>////|CAVOK|\\d{4}(SM|NDV)?|[0-9]+SM)?\\s*'  # Visibility\n",
    "        r'(?P<weather>[\\+\\-]?[A-Z]{2,6}\\s*)?'               # Optional weather phenomena\n",
    "        r'(?P<clouds>((FEW|SCT|BKN|OVC|NSC|VV|NCD|CLR|SKC|///)\\d{0,3}(CB)?\\s*)*)'  # Cloud layers\n",
    "        r'(?:(?P<temperature>M?\\d{2}|//)/(?P<dewpoint>M?\\d{2}|//)\\s+)?'    # Optional temperature and dewpoint\n",
    "        r'(?:(?P<pressure_indicator>[QA])(?P<pressure_value>\\d{4}|////)(=)?\\s*)?'  # Optional pressure with optional '='\n",
    "        r'(?P<has_rmk>RMK\\s+)?'                            # Optional RMK section\n",
    "    )\n",
    "\n",
    "    match = metar_pattern.match(line)\n",
    "    if match:\n",
    "        data = match.groupdict()\n",
    "\n",
    "        # Convert `date_time` to UTC format\n",
    "        try:\n",
    "            utc_date = datetime.strptime(date_time, \"%Y/%m/%d %H:%M\").replace(tzinfo=timezone.utc)\n",
    "            data['date_time'] = utc_date.strftime(\"%Y-%m-%d %H:%M:%S\")\n",
    "            data['date_time'] = pd.to_datetime(data['date_time'], utc=True)\n",
    "        except ValueError as e:\n",
    "            print(f\"Error parsing date_time {date_time}: {e}\")\n",
    "            data['date_time'] = None\n",
    "            \n",
    "        # AUTO handling\n",
    "        data['auto'] = True if data.get('clouds') == 'AUTO' else False\n",
    "        \n",
    "        # Process cloud layers into structured data\n",
    "        clouds = data.get('clouds')\n",
    "        data['cloud_layers'] = parse_cloud_layers(clouds.strip().split()) if clouds else []\n",
    "\n",
    "        # Temperature conversion\n",
    "        if data.get('temperature'):\n",
    "            data['temperature'] = float(data['temperature'].replace(\"M\", \"-\")) if data['temperature'] != \"//\" else None\n",
    "        else:\n",
    "            data['temperature'] = None\n",
    "        \n",
    "        if data.get('dewpoint'):\n",
    "            data['dewpoint'] = float(data['dewpoint'].replace(\"M\", \"-\")) if data['dewpoint'] and data['dewpoint'] != \"//\" else None\n",
    "        else:\n",
    "            data['dewpoint'] = None\n",
    "\n",
    "        # Visibility conversion (to meters)\n",
    "        visibility = data.get('visibility')\n",
    "        if visibility == \"CAVOK\":\n",
    "            data['visibility_meters'] = 10000  # Convention for CAVOK\n",
    "        elif visibility and \"SM\" in visibility:\n",
    "            visibility_miles = float(visibility.replace(\"SM\", \"\"))\n",
    "            data['visibility_meters'] = int(visibility_miles * 1609.34)\n",
    "        elif visibility and visibility.isdigit():\n",
    "            data['visibility_meters'] = int(visibility)\n",
    "        else:\n",
    "            data['visibility_meters'] = None\n",
    "\n",
    "        # Wind speed conversion (to m/s)\n",
    "        wind = data.get('wind')\n",
    "        if wind and \"/////\" not in wind:  # Handle missing wind speed\n",
    "            wind_speed_match = re.search(r'\\d{2}', wind)\n",
    "            wind_speed = int(wind_speed_match.group()) if wind_speed_match else 0\n",
    "            if \"KT\" in wind:\n",
    "                data['wind_speed_mps'] = round(wind_speed * 0.514444, 2)\n",
    "            elif \"KMH\" in wind:\n",
    "                data['wind_speed_mps'] = round(wind_speed / 3.6, 2)\n",
    "            elif \"MPS\" in wind:\n",
    "                data['wind_speed_mps'] = wind_speed\n",
    "            else:\n",
    "                data['wind_speed_mps'] = None\n",
    "        else:\n",
    "            data['wind_speed_mps'] = None\n",
    "\n",
    "        # Pressure handling with unit conversion\n",
    "        pressure_indicator = data.get('pressure_indicator')\n",
    "        pressure_value = data.get('pressure_value')\n",
    "        if pressure_value and pressure_value != \"////\":\n",
    "            if pressure_indicator == \"A\":\n",
    "                # Convert inHg (A) to hPa (Q) by multiplying by 33.8639\n",
    "                data['pressure'] = round(int(pressure_value) * 33.8639 / 100, 2)\n",
    "            elif pressure_indicator == \"Q\":\n",
    "                data['pressure'] = int(pressure_value)\n",
    "            else:\n",
    "                data['pressure'] = None\n",
    "        else:\n",
    "            data['pressure'] = None\n",
    "        \n",
    "        fields_to_drop = ['wind', 'clouds', 'visibility', 'pressure_indicator', 'pressure_value', 'has_rmk']\n",
    "        processed_data = data.copy() \n",
    "        for field in fields_to_drop:\n",
    "            if field in processed_data:\n",
    "                del processed_data[field]\n",
    "        return processed_data\n",
    "\n",
    "    print(f\"Line did not match the METAR pattern: {date_time} {line}\")\n",
    "    return None\n",
    "\n"
   ]
  },
  {
   "cell_type": "code",
   "execution_count": 5,
   "metadata": {},
   "outputs": [
    {
     "name": "stdout",
     "output_type": "stream",
     "text": [
      "      station   cor   auto weather  temperature  dewpoint  \\\n",
      "0        AGGH  None  False     FEW          NaN       NaN   \n",
      "1        AGGH  None  False     FEW          NaN       NaN   \n",
      "2        AGGH  None  False     FEW          NaN       NaN   \n",
      "3        AGGH  None  False     FEW          NaN       NaN   \n",
      "4        AYPY  None  False     FEW          NaN       NaN   \n",
      "...       ...   ...    ...     ...          ...       ...   \n",
      "33801    ZYTX  None  False    None         11.0      10.0   \n",
      "33802    ZYTX  None  False    None         11.0      10.0   \n",
      "33803    ZYTX  None  False    None         11.0      10.0   \n",
      "33804    ZYTX  None  False    None         11.0      10.0   \n",
      "33805    ZYTX  None  False    None         11.0      10.0   \n",
      "\n",
      "                      date_time cloud_layers  visibility_meters  \\\n",
      "0     2022-09-01 15:00:00+00:00           []             9999.0   \n",
      "1     2022-09-01 15:00:00+00:00           []             9999.0   \n",
      "2     2022-09-01 15:00:00+00:00           []             9999.0   \n",
      "3     2022-09-01 15:00:00+00:00           []             9999.0   \n",
      "4     2022-09-01 15:00:00+00:00           []             9999.0   \n",
      "...                         ...          ...                ...   \n",
      "33801 2022-09-01 15:00:00+00:00           []            10000.0   \n",
      "33802 2022-09-01 15:00:00+00:00           []            10000.0   \n",
      "33803 2022-09-01 15:30:00+00:00           []            10000.0   \n",
      "33804 2022-09-01 15:30:00+00:00           []            10000.0   \n",
      "33805 2022-09-01 15:30:00+00:00           []            10000.0   \n",
      "\n",
      "       wind_speed_mps  pressure  \n",
      "0                7.20       NaN  \n",
      "1                7.20       NaN  \n",
      "2                7.20       NaN  \n",
      "3                7.20       NaN  \n",
      "4               18.01       NaN  \n",
      "...               ...       ...  \n",
      "33801            0.00    1019.0  \n",
      "33802            0.00    1019.0  \n",
      "33803            1.00    1019.0  \n",
      "33804            1.00    1019.0  \n",
      "33805            1.00    1019.0  \n",
      "\n",
      "[33806 rows x 11 columns]\n"
     ]
    }
   ],
   "source": [
    "import re\n",
    "import pandas as pd\n",
    "import fetchData\n",
    "file_path = '/home/jaosn/finalProject/data/METAR/train/part_1/metar.20220901.15Z.txt'\n",
    "with open(file_path, 'r', encoding='ISO-8859-1') as file:\n",
    "    lines = file.readlines()\n",
    "    lines = [line.strip() for line in lines if line.strip()]\n",
    "    data_entries = []\n",
    "    #print(len(lines)/2)\n",
    "    date_time = None  # To keep track of the current date and time\n",
    "    \n",
    "    for line in lines:\n",
    "        # Check if the line is a date line\n",
    "        if re.match(r'\\d{4}/\\d{2}/\\d{2} \\d{2}:\\d{2}', line):\n",
    "            date_time = line \n",
    "        elif date_time:  # If we have a date_time, process the METAR line\n",
    "            \n",
    "            parsed_data = fetchData.parse_metar_line(date_time, line)\n",
    "            if parsed_data:\n",
    "                data_entries.append(parsed_data)\n",
    "            date_time = None\n",
    "    df = pd.DataFrame(data_entries)\n",
    "    print(df) \n",
    "    \n"
   ]
  },
  {
   "cell_type": "code",
   "execution_count": 2,
   "metadata": {},
   "outputs": [
    {
     "name": "stdout",
     "output_type": "stream",
     "text": [
      "station                           object\n",
      "cor                               object\n",
      "auto                                bool\n",
      "weather                           object\n",
      "temperature                      float64\n",
      "dewpoint                         float64\n",
      "date_time            datetime64[ns, UTC]\n",
      "cloud_layers                      object\n",
      "visibility_meters                float64\n",
      "wind_speed_mps                   float64\n",
      "pressure                         float64\n",
      "dtype: object\n"
     ]
    }
   ],
   "source": [
    "print(df.dtypes) "
   ]
  },
  {
   "cell_type": "code",
   "execution_count": 26,
   "metadata": {},
   "outputs": [
    {
     "name": "stdout",
     "output_type": "stream",
     "text": [
      "33592.0\n",
      "Error parsing METAR report: CBAR 010000Z AUTO 08007KT ////SM NCD 13/11 A2965. Error: Unparsed groups in body '////SM' while processing 'CBAR 010000Z AUTO 08007KT ////SM NCD 13/11 A2965'\n",
      "Error parsing METAR report: CPIN 010000Z AUTO 12008KT ////SM NCD ///// A////. Error: Unparsed groups in body '////SM' while processing 'CPIN 010000Z AUTO 12008KT ////SM NCD ///// A////'\n",
      "Error parsing METAR report: CWFD 010000Z AUTO ///// ////SM NCD 00/M04 A3000. Error: Unparsed groups in body '////SM' while processing 'CWFD 010000Z AUTO ///// ////SM NCD 00/M04 A3000'\n",
      "Error parsing METAR report: CWFD 010000Z AUTO ///// ////SM NCD 00/M04 A3000. Error: Unparsed groups in body '////SM' while processing 'CWFD 010000Z AUTO ///// ////SM NCD 00/M04 A3000'\n",
      "Error parsing METAR report: CWIL 010000Z AUTO ///// ////SM OVC090 ///// A////. Error: Unparsed groups in body '////SM' while processing 'CWIL 010000Z AUTO ///// ////SM OVC090 ///// A////'\n",
      "Error parsing METAR report: CWIL 010000Z AUTO ///// ////SM OVC090 ///// A////. Error: Unparsed groups in body '////SM' while processing 'CWIL 010000Z AUTO ///// ////SM OVC090 ///// A////'\n",
      "Error parsing METAR report: CWKM 010000Z AUTO 04006KT ////SM NCD 09/08 A2955. Error: Unparsed groups in body '////SM' while processing 'CWKM 010000Z AUTO 04006KT ////SM NCD 09/08 A2955'\n",
      "Error parsing METAR report: CWKM 010000Z AUTO 04006KT ////SM NCD 09/08 A2955. Error: Unparsed groups in body '////SM' while processing 'CWKM 010000Z AUTO 04006KT ////SM NCD 09/08 A2955'\n",
      "Error parsing METAR report: CWKP 010000Z AUTO VRB03KT ////SM FEW002 OVC080 10/10 A2969. Error: Unparsed groups in body '////SM' while processing 'CWKP 010000Z AUTO VRB03KT ////SM FEW002 OVC080 10/10 A2969'\n",
      "Error parsing METAR report: CWKP 010019Z AUTO 11004KT ////SM BKN019 OVC080 10/09 A2969. Error: Unparsed groups in body '////SM' while processing 'CWKP 010019Z AUTO 11004KT ////SM BKN019 OVC080 10/09 A2969'\n",
      "Error parsing METAR report: CWKP 010035Z AUTO 11005KT ////SM SCT019 SCT024 OVC080 10/10 A2969. Error: Unparsed groups in body '////SM' while processing 'CWKP 010035Z AUTO 11005KT ////SM SCT019 SCT024 OVC080 10/10 A2969'\n",
      "Error parsing METAR report: CWLI 010000Z AUTO 07006KT ////SM NCD 16/10 A2963. Error: Unparsed groups in body '////SM' while processing 'CWLI 010000Z AUTO 07006KT ////SM NCD 16/10 A2963'\n",
      "Error parsing METAR report: CWLI 010000Z AUTO 07006KT ////SM NCD 16/10 A2963. Error: Unparsed groups in body '////SM' while processing 'CWLI 010000Z AUTO 07006KT ////SM NCD 16/10 A2963'\n",
      "Error parsing METAR report: CWLX 010000Z AUTO ///// ////SM FEW160 05/02 A2993. Error: Unparsed groups in body '////SM' while processing 'CWLX 010000Z AUTO ///// ////SM FEW160 05/02 A2993'\n",
      "Error parsing METAR report: CWLX 010000Z AUTO ///// ////SM FEW160 05/02 A2993. Error: Unparsed groups in body '////SM' while processing 'CWLX 010000Z AUTO ///// ////SM FEW160 05/02 A2993'\n",
      "Error parsing METAR report: CWOB 010000Z AUTO 13026G40KT ////SM OVC002 03/03 A2987. Error: Unparsed groups in body '////SM' while processing 'CWOB 010000Z AUTO 13026G40KT ////SM OVC002 03/03 A2987'\n",
      "Error parsing METAR report: CWOB 010000Z AUTO 13026G40KT ////SM OVC002 03/03 A2987. Error: Unparsed groups in body '////SM' while processing 'CWOB 010000Z AUTO 13026G40KT ////SM OVC002 03/03 A2987'\n",
      "Error parsing METAR report: CWPX 010000Z AUTO 13013KT ////SM //// BKN037 OVC140 09/04 A2983. Error: Unparsed groups in body '////SM' while processing 'CWPX 010000Z AUTO 13013KT ////SM //// BKN037 OVC140 09/04 A2983'\n",
      "Error parsing METAR report: CWRH 010000Z AUTO 11032G43KT ////SM ////// ///// A2961. Error: Unparsed groups in body '////SM' while processing 'CWRH 010000Z AUTO 11032G43KT ////SM ////// ///// A2961'\n",
      "Error parsing METAR report: CWRH 010000Z AUTO 11032G43KT ////SM ////// ///// A2961. Error: Unparsed groups in body '////SM' while processing 'CWRH 010000Z AUTO 11032G43KT ////SM ////// ///// A2961'\n",
      "Error parsing METAR report: CWUW 010000Z AUTO 09015KT ////SM FEW140 04/01 A2992. Error: Unparsed groups in body '////SM' while processing 'CWUW 010000Z AUTO 09015KT ////SM FEW140 04/01 A2992'\n",
      "Error parsing METAR report: CWUW 010000Z AUTO 09015KT ////SM FEW140 04/01 A2992. Error: Unparsed groups in body '////SM' while processing 'CWUW 010000Z AUTO 09015KT ////SM FEW140 04/01 A2992'\n",
      "Error parsing METAR report: CWVH 010000Z AUTO 20008KT 140V220 ////SM NCD 18/05 A2960. Error: Unparsed groups in body '////SM' while processing 'CWVH 010000Z AUTO 20008KT 140V220 ////SM NCD 18/05 A2960'\n",
      "Error parsing METAR report: CWVH 010000Z AUTO 20008KT 140V220 ////SM NCD 18/05 A2960. Error: Unparsed groups in body '////SM' while processing 'CWVH 010000Z AUTO 20008KT 140V220 ////SM NCD 18/05 A2960'\n",
      "Error parsing METAR report: CWXR 010000Z AUTO ///// ////SM ////// ///// A////. Error: Unparsed groups in body '////SM' while processing 'CWXR 010000Z AUTO ///// ////SM ////// ///// A////'\n",
      "Error parsing METAR report: CWXR 010000Z AUTO ///// ////SM ////// ///// A////. Error: Unparsed groups in body '////SM' while processing 'CWXR 010000Z AUTO ///// ////SM ////// ///// A////'\n",
      "Error parsing METAR report: CWZZ 010000Z AUTO 20017KT ////SM OVC002 ///// A2956. Error: Unparsed groups in body '////SM' while processing 'CWZZ 010000Z AUTO 20017KT ////SM OVC002 ///// A2956'\n",
      "Error parsing METAR report: CWZZ 010000Z AUTO 20017KT ////SM OVC002 ///// A2956. Error: Unparsed groups in body '////SM' while processing 'CWZZ 010000Z AUTO 20017KT ////SM OVC002 ///// A2956'\n",
      "Error parsing METAR report: CYUA 010000Z AUTO 23016G22KT ////SM NCD 19/08 A2954. Error: Unparsed groups in body '////SM' while processing 'CYUA 010000Z AUTO 23016G22KT ////SM NCD 19/08 A2954'\n",
      "Error parsing METAR report: CYUA 010000Z AUTO 23016G22KT ////SM NCD 19/08 A2954. Error: Unparsed groups in body '////SM' while processing 'CYUA 010000Z AUTO 23016G22KT ////SM NCD 19/08 A2954'\n",
      "Error parsing METAR report: CYUS 010000Z AUTO 28003KT 240V310 ////SM //// NCD 09/M01 A2997. Error: Unparsed groups in body '////SM' while processing 'CYUS 010000Z AUTO 28003KT 240V310 ////SM //// NCD 09/M01 A2997'\n",
      "Error parsing METAR report: CYUS 010000Z AUTO 28003KT 240V310 ////SM //// NCD 09/M01 A2997. Error: Unparsed groups in body '////SM' while processing 'CYUS 010000Z AUTO 28003KT 240V310 ////SM //// NCD 09/M01 A2997'\n",
      "Error parsing METAR report: CZCP 010000Z AUTO 14003KT 110V180 ////SM //// OVC080 06/06 A2969. Error: Unparsed groups in body '////SM' while processing 'CZCP 010000Z AUTO 14003KT 110V180 ////SM //// OVC080 06/06 A2969'\n",
      "Error parsing METAR report: CZCP 010000Z AUTO 14003KT 110V180 ////SM //// OVC080 06/06 A2969. Error: Unparsed groups in body '////SM' while processing 'CZCP 010000Z AUTO 14003KT 110V180 ////SM //// OVC080 06/06 A2969'\n",
      "Error parsing METAR report: EHJR 312355Z AUTO ///20KT //// // ///////// 18/13 Q1024 RE// W19/H16. Error: Unparsed groups in body 'RE// W19/H16' while processing 'EHJR 312355Z AUTO ///20KT //// // ///////// 18/13 Q1024 RE// W19/H16'\n",
      "Error parsing METAR report: EHJR 010025Z AUTO ///19KT //// // ///////// 18/13 Q1024 RE// W19/H19. Error: Unparsed groups in body 'RE// W19/H19' while processing 'EHJR 010025Z AUTO ///19KT //// // ///////// 18/13 Q1024 RE// W19/H19'\n",
      "Error parsing METAR report: EHSA 312355Z AUTO 05024KT 9999 ///////// 19/15 Q1021 W21/H21. Error: Unparsed groups in body 'W21/H21' while processing 'EHSA 312355Z AUTO 05024KT 9999 ///////// 19/15 Q1021 W21/H21'\n",
      "Error parsing METAR report: EHSA 010025Z AUTO 05024KT 9999 ///////// 19/14 Q1021 W21/H19. Error: Unparsed groups in body 'W21/H19' while processing 'EHSA 010025Z AUTO 05024KT 9999 ///////// 19/14 Q1021 W21/H19'\n",
      "Error parsing METAR report: EHSC 312355Z AUTO 07021KT 9999 ///////// 19/14 Q1021 W20/H16. Error: Unparsed groups in body 'W20/H16' while processing 'EHSC 312355Z AUTO 07021KT 9999 ///////// 19/14 Q1021 W20/H16'\n",
      "Error parsing METAR report: EHSC 010025Z AUTO 07021KT 9999 ///////// 18/13 Q1021 W20/H16. Error: Unparsed groups in body 'W20/H16' while processing 'EHSC 010025Z AUTO 07021KT 9999 ///////// 18/13 Q1021 W20/H16'\n",
      "Error parsing METAR report: ENDR 312350Z AUTO 04009KT 9999NDV OVC016/// 10/07 Q1030 W///S3. Error: Unparsed groups in body 'W///S3' while processing 'ENDR 312350Z AUTO 04009KT 9999NDV OVC016/// 10/07 Q1030 W///S3'\n",
      "Error parsing METAR report: ENDR 312350Z AUTO 04009KT 9999NDV OVC016/// 10/07 Q1030 W///S3. Error: Unparsed groups in body 'W///S3' while processing 'ENDR 312350Z AUTO 04009KT 9999NDV OVC016/// 10/07 Q1030 W///S3'\n",
      "Error parsing METAR report: ENDR 010020Z AUTO 08008KT 7000NDV -SHRA OVC013/// 10/08 Q1030 W///S3. Error: Unparsed groups in body 'W///S3' while processing 'ENDR 010020Z AUTO 08008KT 7000NDV -SHRA OVC013/// 10/08 Q1030 W///S3'\n",
      "Error parsing METAR report: ENDR 010020Z AUTO 08008KT 7000NDV -SHRA OVC013/// 10/08 Q1030 W///S3. Error: Unparsed groups in body 'W///S3' while processing 'ENDR 010020Z AUTO 08008KT 7000NDV -SHRA OVC013/// 10/08 Q1030 W///S3'\n",
      "Error parsing METAR report: ENFB 312350Z AUTO 14005KT 9999NDV OVC033/// 13/12 Q1028 W///S4. Error: Unparsed groups in body 'W///S4' while processing 'ENFB 312350Z AUTO 14005KT 9999NDV OVC033/// 13/12 Q1028 W///S4'\n",
      "Error parsing METAR report: ENFB 312350Z AUTO 14005KT 9999NDV OVC033/// 13/12 Q1028 W///S4. Error: Unparsed groups in body 'W///S4' while processing 'ENFB 312350Z AUTO 14005KT 9999NDV OVC033/// 13/12 Q1028 W///S4'\n",
      "Error parsing METAR report: ENFB 312350Z AUTO 14005KT 9999NDV OVC033/// 13/12 Q1028 W///S4. Error: Unparsed groups in body 'W///S4' while processing 'ENFB 312350Z AUTO 14005KT 9999NDV OVC033/// 13/12 Q1028 W///S4'\n",
      "Error parsing METAR report: ENFB 312350Z AUTO 14005KT 9999NDV OVC033/// 13/12 Q1028 W///S4. Error: Unparsed groups in body 'W///S4' while processing 'ENFB 312350Z AUTO 14005KT 9999NDV OVC033/// 13/12 Q1028 W///S4'\n",
      "Error parsing METAR report: ENGC 312350Z 17006KT CAVOK 13/11 Q1028 W11/S2. Error: Unparsed groups in body 'W11/S2' while processing 'ENGC 312350Z 17006KT CAVOK 13/11 Q1028 W11/S2'\n",
      "Error parsing METAR report: ENGC 312350Z 17006KT CAVOK 13/11 Q1028 W11/S2. Error: Unparsed groups in body 'W11/S2' while processing 'ENGC 312350Z 17006KT CAVOK 13/11 Q1028 W11/S2'\n",
      "Error parsing METAR report: ENGC 312350Z 17006KT CAVOK 13/11 Q1028 W11/S2. Error: Unparsed groups in body 'W11/S2' while processing 'ENGC 312350Z 17006KT CAVOK 13/11 Q1028 W11/S2'\n",
      "Error parsing METAR report: ENGC 010020Z 16007KT CAVOK 13/11 Q1028 W11/S2. Error: Unparsed groups in body 'W11/S2' while processing 'ENGC 010020Z 16007KT CAVOK 13/11 Q1028 W11/S2'\n",
      "Error parsing METAR report: ENGC 010020Z 16007KT CAVOK 13/11 Q1028 W11/S2. Error: Unparsed groups in body 'W11/S2' while processing 'ENGC 010020Z 16007KT CAVOK 13/11 Q1028 W11/S2'\n",
      "Error parsing METAR report: ENGC 010020Z 16007KT CAVOK 13/11 Q1028 W11/S2. Error: Unparsed groups in body 'W11/S2' while processing 'ENGC 010020Z 16007KT CAVOK 13/11 Q1028 W11/S2'\n",
      "Error parsing METAR report: ENHE 312350Z 06008KT 9999 FEW010 BKN020 09/08 Q1030 W///S3. Error: Unparsed groups in body 'W///S3' while processing 'ENHE 312350Z 06008KT 9999 FEW010 BKN020 09/08 Q1030 W///S3'\n",
      "Error parsing METAR report: ENHE 312350Z 06008KT 9999 FEW010 BKN020 09/08 Q1030 W///S3. Error: Unparsed groups in body 'W///S3' while processing 'ENHE 312350Z 06008KT 9999 FEW010 BKN020 09/08 Q1030 W///S3'\n",
      "Error parsing METAR report: ENHE 312350Z 06008KT 9999 FEW010 BKN020 09/08 Q1030 W///S3. Error: Unparsed groups in body 'W///S3' while processing 'ENHE 312350Z 06008KT 9999 FEW010 BKN020 09/08 Q1030 W///S3'\n",
      "Error parsing METAR report: ENHE 010020Z 07007KT 9999 BKN020 09/08 Q1030 W///S3. Error: Unparsed groups in body 'W///S3' while processing 'ENHE 010020Z 07007KT 9999 BKN020 09/08 Q1030 W///S3'\n",
      "Error parsing METAR report: ENHE 010020Z 07007KT 9999 BKN020 09/08 Q1030 W///S3. Error: Unparsed groups in body 'W///S3' while processing 'ENHE 010020Z 07007KT 9999 BKN020 09/08 Q1030 W///S3'\n",
      "Error parsing METAR report: ENHE 010020Z 07007KT 9999 BKN020 09/08 Q1030 W///S3. Error: Unparsed groups in body 'W///S3' while processing 'ENHE 010020Z 07007KT 9999 BKN020 09/08 Q1030 W///S3'\n",
      "Error parsing METAR report: ENHM 312350Z AUTO 17012KT 9999NDV OVC033/// ///// Q//// W15/S/. Error: Unparsed groups in body 'W15/S/' while processing 'ENHM 312350Z AUTO 17012KT 9999NDV OVC033/// ///// Q//// W15/S/'\n",
      "Error parsing METAR report: ENHM 010021Z AUTO /////KT 9999NDV FEW028/// OVC032/// ///// Q//// W15/S/. Error: Unparsed groups in body 'W15/S/' while processing 'ENHM 010021Z AUTO /////KT 9999NDV FEW028/// OVC032/// ///// Q//// W15/S/'\n",
      "Error parsing METAR report: ENJS 312350Z 22009KT 9999 BKN031 13/07 Q1029 W15/S/. Error: Unparsed groups in body 'W15/S/' while processing 'ENJS 312350Z 22009KT 9999 BKN031 13/07 Q1029 W15/S/'\n",
      "Error parsing METAR report: ENJS 312350Z 22009KT 9999 BKN031 13/07 Q1029 W15/S/. Error: Unparsed groups in body 'W15/S/' while processing 'ENJS 312350Z 22009KT 9999 BKN031 13/07 Q1029 W15/S/'\n",
      "Error parsing METAR report: ENJS 010020Z 20011KT 9999 BKN033 13/07 Q1028 W15/S/. Error: Unparsed groups in body 'W15/S/' while processing 'ENJS 010020Z 20011KT 9999 BKN033 13/07 Q1028 W15/S/'\n",
      "Error parsing METAR report: ENLA 312350Z AUTO 31006KT 9999NDV NCD 14/10 Q1028 W///S3. Error: Unparsed groups in body 'W///S3' while processing 'ENLA 312350Z AUTO 31006KT 9999NDV NCD 14/10 Q1028 W///S3'\n",
      "Error parsing METAR report: ENLA 010020Z AUTO 32006KT 9999NDV NCD 14/10 Q1028 W///S3. Error: Unparsed groups in body 'W///S3' while processing 'ENLA 010020Z AUTO 32006KT 9999NDV NCD 14/10 Q1028 W///S3'\n",
      "Error parsing METAR report: ENLE 312350Z 01009KT 9999 SCT020 15/11 Q1028 W17/S3. Error: Unparsed groups in body 'W17/S3' while processing 'ENLE 312350Z 01009KT 9999 SCT020 15/11 Q1028 W17/S3'\n",
      "Error parsing METAR report: ENLE 010020Z 01010KT 9999 SCT020 14/10 Q1028 W17/S3. Error: Unparsed groups in body 'W17/S3' while processing 'ENLE 010020Z 01010KT 9999 SCT020 14/10 Q1028 W17/S3'\n",
      "Error parsing METAR report: ENNE 312350Z AUTO /////KT //// /// ///// Q//// W///S3. Error: Unparsed groups in body 'W///S3' while processing 'ENNE 312350Z AUTO /////KT //// /// ///// Q//// W///S3'\n",
      "Error parsing METAR report: ENNE 010021Z AUTO /////KT //// /// ///// Q//// W///S3. Error: Unparsed groups in body 'W///S3' while processing 'ENNE 010021Z AUTO /////KT //// /// ///// Q//// W///S3'\n",
      "Error parsing METAR report: ENOA 312350Z 21007KT 9999 FEW030 14/08 Q1028 W///S4. Error: Unparsed groups in body 'W///S4' while processing 'ENOA 312350Z 21007KT 9999 FEW030 14/08 Q1028 W///S4'\n",
      "Error parsing METAR report: ENOA 312350Z 21007KT 9999 FEW030 14/08 Q1028 W///S4. Error: Unparsed groups in body 'W///S4' while processing 'ENOA 312350Z 21007KT 9999 FEW030 14/08 Q1028 W///S4'\n",
      "Error parsing METAR report: ENOA 312350Z 21007KT 9999 FEW030 14/08 Q1028 W///S4. Error: Unparsed groups in body 'W///S4' while processing 'ENOA 312350Z 21007KT 9999 FEW030 14/08 Q1028 W///S4'\n",
      "Error parsing METAR report: ENQA 312350Z AUTO 25003KT 9999NDV NCD 13/11 Q1028 W21/S/. Error: Unparsed groups in body 'W21/S/' while processing 'ENQA 312350Z AUTO 25003KT 9999NDV NCD 13/11 Q1028 W21/S/'\n",
      "Error parsing METAR report: ENQA 010021Z AUTO /////KT 9999NDV NCD ///// Q//// W///S/. Error: Unparsed groups in body 'W///S/' while processing 'ENQA 010021Z AUTO /////KT 9999NDV NCD ///// Q//// W///S/'\n",
      "Error parsing METAR report: ENQC 312350Z AUTO 22005KT 9999NDV NCD 14/11 Q1027 W///S2. Error: Unparsed groups in body 'W///S2' while processing 'ENQC 312350Z AUTO 22005KT 9999NDV NCD 14/11 Q1027 W///S2'\n",
      "Error parsing METAR report: ENQR 312350Z AUTO 15006KT 9999NDV NCD 13/10 Q1027 W12/S2. Error: Unparsed groups in body 'W12/S2' while processing 'ENQR 312350Z AUTO 15006KT 9999NDV NCD 13/10 Q1027 W12/S2'\n",
      "Error parsing METAR report: ENSE 312350Z AUTO 16008KT 9999NDV NCD 13/11 Q1028 W///S3. Error: Unparsed groups in body 'W///S3' while processing 'ENSE 312350Z AUTO 16008KT 9999NDV NCD 13/11 Q1028 W///S3'\n",
      "Error parsing METAR report: ENSE 010021Z AUTO /////KT //// /// ///// Q//// W///S3. Error: Unparsed groups in body 'W///S3' while processing 'ENSE 010021Z AUTO /////KT //// /// ///// Q//// W///S3'\n",
      "Error parsing METAR report: ENSF 312350Z AUTO 14005KT 9999NDV BKN033/// 16/11 Q1028 W///S4. Error: Unparsed groups in body 'W///S4' while processing 'ENSF 312350Z AUTO 14005KT 9999NDV BKN033/// 16/11 Q1028 W///S4'\n",
      "Error parsing METAR report: ENSL 312350Z AUTO 22008KT 9999NDV OVC029/// 14/// Q1030 W14/S3. Error: Unparsed groups in body 'W14/S3' while processing 'ENSL 312350Z AUTO 22008KT 9999NDV OVC029/// 14/// Q1030 W14/S3'\n",
      "Error parsing METAR report: ENUG 312350Z AUTO 02010KT 9999NDV OVC029/// 07/00 Q1030 W///S3. Error: Unparsed groups in body 'W///S3' while processing 'ENUG 312350Z AUTO 02010KT 9999NDV OVC029/// 07/00 Q1030 W///S3'\n",
      "Error parsing METAR report: ENUG 010020Z AUTO 02011KT 9999NDV OVC023/// 07/02 Q1030 W///S3. Error: Unparsed groups in body 'W///S3' while processing 'ENUG 010020Z AUTO 02011KT 9999NDV OVC023/// 07/02 Q1030 W///S3'\n",
      "Error parsing METAR report: ENUN 312350Z AUTO 29004KT 9999NDV OVC017/// 09/06 Q1030 W10/S3. Error: Unparsed groups in body 'W10/S3' while processing 'ENUN 312350Z AUTO 29004KT 9999NDV OVC017/// 09/06 Q1030 W10/S3'\n",
      "Error parsing METAR report: ENUN 010020Z AUTO 28003KT 180V320 9999NDV OVC017/// 09/06 Q1030 W10/S3. Error: Unparsed groups in body 'W10/S3' while processing 'ENUN 010020Z AUTO 28003KT 180V320 9999NDV OVC017/// 09/06 Q1030 W10/S3'\n",
      "Error parsing METAR report: ENWV 312350Z AUTO 04011KT 9999NDV NCD 15/12 Q1028 W///S3. Error: Unparsed groups in body 'W///S3' while processing 'ENWV 312350Z AUTO 04011KT 9999NDV NCD 15/12 Q1028 W///S3'\n",
      "Error parsing METAR report: ENWV 010020Z AUTO 03010KT 9999NDV NCD 15/13 Q1028 W///S3. Error: Unparsed groups in body 'W///S3' while processing 'ENWV 010020Z AUTO 03010KT 9999NDV NCD 15/13 Q1028 W///S3'\n",
      "Error parsing METAR report: ETGG 010020Z AUTO 06008KT 9999 // ////// 12/11 Q1025 ///. Error: Unparsed groups in body '///' while processing 'ETGG 010020Z AUTO 06008KT 9999 // ////// 12/11 Q1025 ///'\n",
      "Error parsing METAR report: ETGG 010020Z AUTO 06008KT 9999 // ////// 12/11 Q1025 ///. Error: Unparsed groups in body '///' while processing 'ETGG 010020Z AUTO 06008KT 9999 // ////// 12/11 Q1025 ///'\n",
      "Error parsing METAR report: ETGG 010020Z AUTO 06008KT 9999 // ////// 12/11 Q1025 ///. Error: Unparsed groups in body '///' while processing 'ETGG 010020Z AUTO 06008KT 9999 // ////// 12/11 Q1025 ///'\n",
      "Error parsing METAR report: ETGG 010020Z AUTO 06008KT 9999 // ////// 12/11 Q1025 ///. Error: Unparsed groups in body '///' while processing 'ETGG 010020Z AUTO 06008KT 9999 // ////// 12/11 Q1025 ///'\n",
      "Error parsing METAR report: ETGG 010020Z AUTO 06008KT 9999 // ////// 12/11 Q1025 ///. Error: Unparsed groups in body '///' while processing 'ETGG 010020Z AUTO 06008KT 9999 // ////// 12/11 Q1025 ///'\n",
      "Error parsing METAR report: ETGG 010020Z AUTO 06008KT 9999 // ////// 12/11 Q1025 ///. Error: Unparsed groups in body '///' while processing 'ETGG 010020Z AUTO 06008KT 9999 // ////// 12/11 Q1025 ///'\n",
      "Error parsing METAR report: ETHA 010020Z AUTO 06006KT 9000 // ////// 13/12 Q1020 ///. Error: Unparsed groups in body '///' while processing 'ETHA 010020Z AUTO 06006KT 9000 // ////// 13/12 Q1020 ///'\n",
      "Error parsing METAR report: ETHA 010020Z AUTO 06006KT 9000 // ////// 13/12 Q1020 ///. Error: Unparsed groups in body '///' while processing 'ETHA 010020Z AUTO 06006KT 9000 // ////// 13/12 Q1020 ///'\n",
      "Error parsing METAR report: ETHA 010020Z AUTO 06006KT 9000 // ////// 13/12 Q1020 ///. Error: Unparsed groups in body '///' while processing 'ETHA 010020Z AUTO 06006KT 9000 // ////// 13/12 Q1020 ///'\n",
      "Error parsing METAR report: ETHA 010020Z AUTO 06006KT 9000 // ////// 13/12 Q1020 ///. Error: Unparsed groups in body '///' while processing 'ETHA 010020Z AUTO 06006KT 9000 // ////// 13/12 Q1020 ///'\n",
      "Error parsing METAR report: ETHA 010020Z AUTO 06006KT 9000 // ////// 13/12 Q1020 ///. Error: Unparsed groups in body '///' while processing 'ETHA 010020Z AUTO 06006KT 9000 // ////// 13/12 Q1020 ///'\n",
      "Error parsing METAR report: ETHA 010020Z AUTO 06006KT 9000 // ////// 13/12 Q1020 ///. Error: Unparsed groups in body '///' while processing 'ETHA 010020Z AUTO 06006KT 9000 // ////// 13/12 Q1020 ///'\n",
      "Error parsing METAR report: ETHF 010020Z AUTO 31003KT 8000 // ////// 11/09 Q1021 ///. Error: Unparsed groups in body '///' while processing 'ETHF 010020Z AUTO 31003KT 8000 // ////// 11/09 Q1021 ///'\n",
      "Error parsing METAR report: ETHF 010020Z AUTO 31003KT 8000 // ////// 11/09 Q1021 ///. Error: Unparsed groups in body '///' while processing 'ETHF 010020Z AUTO 31003KT 8000 // ////// 11/09 Q1021 ///'\n",
      "Error parsing METAR report: ETHF 010020Z AUTO 31003KT 8000 // ////// 11/09 Q1021 ///. Error: Unparsed groups in body '///' while processing 'ETHF 010020Z AUTO 31003KT 8000 // ////// 11/09 Q1021 ///'\n",
      "Error parsing METAR report: ETHF 010020Z AUTO 31003KT 8000 // ////// 11/09 Q1021 ///. Error: Unparsed groups in body '///' while processing 'ETHF 010020Z AUTO 31003KT 8000 // ////// 11/09 Q1021 ///'\n",
      "Error parsing METAR report: ETHF 010020Z AUTO 31003KT 8000 // ////// 11/09 Q1021 ///. Error: Unparsed groups in body '///' while processing 'ETHF 010020Z AUTO 31003KT 8000 // ////// 11/09 Q1021 ///'\n",
      "Error parsing METAR report: ETHF 010020Z AUTO 31003KT 8000 // ////// 11/09 Q1021 ///. Error: Unparsed groups in body '///' while processing 'ETHF 010020Z AUTO 31003KT 8000 // ////// 11/09 Q1021 ///'\n",
      "Error parsing METAR report: ETHL 010020Z AUTO 07004KT //// // ////// 13/12 Q1019 ///. Error: Unparsed groups in body '///' while processing 'ETHL 010020Z AUTO 07004KT //// // ////// 13/12 Q1019 ///'\n",
      "Error parsing METAR report: ETHL 010020Z AUTO 07004KT //// // ////// 13/12 Q1019 ///. Error: Unparsed groups in body '///' while processing 'ETHL 010020Z AUTO 07004KT //// // ////// 13/12 Q1019 ///'\n",
      "Error parsing METAR report: ETHL 010020Z AUTO 07004KT //// // ////// 13/12 Q1019 ///. Error: Unparsed groups in body '///' while processing 'ETHL 010020Z AUTO 07004KT //// // ////// 13/12 Q1019 ///'\n",
      "Error parsing METAR report: ETHL 010020Z AUTO 07004KT //// // ////// 13/12 Q1019 ///. Error: Unparsed groups in body '///' while processing 'ETHL 010020Z AUTO 07004KT //// // ////// 13/12 Q1019 ///'\n",
      "Error parsing METAR report: ETHL 010020Z AUTO 07004KT //// // ////// 13/12 Q1019 ///. Error: Unparsed groups in body '///' while processing 'ETHL 010020Z AUTO 07004KT //// // ////// 13/12 Q1019 ///'\n",
      "Error parsing METAR report: ETHL 010020Z AUTO 07004KT //// // ////// 13/12 Q1019 ///. Error: Unparsed groups in body '///' while processing 'ETHL 010020Z AUTO 07004KT //// // ////// 13/12 Q1019 ///'\n",
      "Error parsing METAR report: ETNH 010020Z AUTO 08002KT 9999 // ////// 09/08 Q1025 ///. Error: Unparsed groups in body '///' while processing 'ETNH 010020Z AUTO 08002KT 9999 // ////// 09/08 Q1025 ///'\n",
      "Error parsing METAR report: ETNH 010020Z AUTO 08002KT 9999 // ////// 09/08 Q1025 ///. Error: Unparsed groups in body '///' while processing 'ETNH 010020Z AUTO 08002KT 9999 // ////// 09/08 Q1025 ///'\n",
      "Error parsing METAR report: ETNH 010020Z AUTO 08002KT 9999 // ////// 09/08 Q1025 ///. Error: Unparsed groups in body '///' while processing 'ETNH 010020Z AUTO 08002KT 9999 // ////// 09/08 Q1025 ///'\n",
      "Error parsing METAR report: ETNH 010020Z AUTO 08002KT 9999 // ////// 09/08 Q1025 ///. Error: Unparsed groups in body '///' while processing 'ETNH 010020Z AUTO 08002KT 9999 // ////// 09/08 Q1025 ///'\n",
      "Error parsing METAR report: ETNH 010020Z AUTO 08002KT 9999 // ////// 09/08 Q1025 ///. Error: Unparsed groups in body '///' while processing 'ETNH 010020Z AUTO 08002KT 9999 // ////// 09/08 Q1025 ///'\n",
      "Error parsing METAR report: ETNH 010020Z AUTO 08002KT 9999 // ////// 09/08 Q1025 ///. Error: Unparsed groups in body '///' while processing 'ETNH 010020Z AUTO 08002KT 9999 // ////// 09/08 Q1025 ///'\n",
      "Error parsing METAR report: ETNT 010020Z AUTO /////KT //// // ////// 13/10 Q1024 ///. Error: Unparsed groups in body '///' while processing 'ETNT 010020Z AUTO /////KT //// // ////// 13/10 Q1024 ///'\n",
      "Error parsing METAR report: ETNT 010020Z AUTO /////KT //// // ////// 13/10 Q1024 ///. Error: Unparsed groups in body '///' while processing 'ETNT 010020Z AUTO /////KT //// // ////// 13/10 Q1024 ///'\n",
      "Error parsing METAR report: ETNT 010020Z AUTO /////KT //// // ////// 13/10 Q1024 ///. Error: Unparsed groups in body '///' while processing 'ETNT 010020Z AUTO /////KT //// // ////// 13/10 Q1024 ///'\n",
      "Error parsing METAR report: ETNT 010020Z AUTO /////KT //// // ////// 13/10 Q1024 ///. Error: Unparsed groups in body '///' while processing 'ETNT 010020Z AUTO /////KT //// // ////// 13/10 Q1024 ///'\n",
      "Error parsing METAR report: ETNT 010020Z AUTO /////KT //// // ////// 13/10 Q1024 ///. Error: Unparsed groups in body '///' while processing 'ETNT 010020Z AUTO /////KT //// // ////// 13/10 Q1024 ///'\n",
      "Error parsing METAR report: ETNT 010020Z AUTO /////KT //// // ////// 13/10 Q1024 ///. Error: Unparsed groups in body '///' while processing 'ETNT 010020Z AUTO /////KT //// // ////// 13/10 Q1024 ///'\n",
      "Error parsing METAR report: ETNT 010020Z AUTO /////KT //// // ////// 13/10 Q1024 ///. Error: Unparsed groups in body '///' while processing 'ETNT 010020Z AUTO /////KT //// // ////// 13/10 Q1024 ///'\n",
      "Error parsing METAR report: ETSB 010020Z AUTO 07007KT //// // ////// 14/09 Q1021 ///. Error: Unparsed groups in body '///' while processing 'ETSB 010020Z AUTO 07007KT //// // ////// 14/09 Q1021 ///'\n",
      "Error parsing METAR report: ETSB 010020Z AUTO 07007KT //// // ////// 14/09 Q1021 ///. Error: Unparsed groups in body '///' while processing 'ETSB 010020Z AUTO 07007KT //// // ////// 14/09 Q1021 ///'\n",
      "Error parsing METAR report: ETSB 010020Z AUTO 07007KT //// // ////// 14/09 Q1021 ///. Error: Unparsed groups in body '///' while processing 'ETSB 010020Z AUTO 07007KT //// // ////// 14/09 Q1021 ///'\n",
      "Error parsing METAR report: ETSB 010020Z AUTO 07007KT //// // ////// 14/09 Q1021 ///. Error: Unparsed groups in body '///' while processing 'ETSB 010020Z AUTO 07007KT //// // ////// 14/09 Q1021 ///'\n",
      "Error parsing METAR report: ETSB 010020Z AUTO 07007KT //// // ////// 14/09 Q1021 ///. Error: Unparsed groups in body '///' while processing 'ETSB 010020Z AUTO 07007KT //// // ////// 14/09 Q1021 ///'\n",
      "Error parsing METAR report: ETSB 010020Z AUTO 07007KT //// // ////// 14/09 Q1021 ///. Error: Unparsed groups in body '///' while processing 'ETSB 010020Z AUTO 07007KT //// // ////// 14/09 Q1021 ///'\n",
      "Error parsing METAR report: ETSI 010020Z AUTO 08003KT 5000 // ////// 15/14 Q1020 ///. Error: Unparsed groups in body '///' while processing 'ETSI 010020Z AUTO 08003KT 5000 // ////// 15/14 Q1020 ///'\n",
      "Error parsing METAR report: ETSI 010020Z AUTO 08003KT 5000 // ////// 15/14 Q1020 ///. Error: Unparsed groups in body '///' while processing 'ETSI 010020Z AUTO 08003KT 5000 // ////// 15/14 Q1020 ///'\n",
      "Error parsing METAR report: ETSI 010020Z AUTO 08003KT 5000 // ////// 15/14 Q1020 ///. Error: Unparsed groups in body '///' while processing 'ETSI 010020Z AUTO 08003KT 5000 // ////// 15/14 Q1020 ///'\n",
      "Error parsing METAR report: ETSI 010020Z AUTO 08003KT 5000 // ////// 15/14 Q1020 ///. Error: Unparsed groups in body '///' while processing 'ETSI 010020Z AUTO 08003KT 5000 // ////// 15/14 Q1020 ///'\n",
      "Error parsing METAR report: ETSI 010020Z AUTO 08003KT 5000 // ////// 15/14 Q1020 ///. Error: Unparsed groups in body '///' while processing 'ETSI 010020Z AUTO 08003KT 5000 // ////// 15/14 Q1020 ///'\n",
      "Error parsing METAR report: ETSI 010020Z AUTO 08003KT 5000 // ////// 15/14 Q1020 ///. Error: Unparsed groups in body '///' while processing 'ETSI 010020Z AUTO 08003KT 5000 // ////// 15/14 Q1020 ///'\n",
      "Error parsing METAR report: ETSI 010020Z AUTO 08003KT 5000 // ////// 15/14 Q1020 ///. Error: Unparsed groups in body '///' while processing 'ETSI 010020Z AUTO 08003KT 5000 // ////// 15/14 Q1020 ///'\n",
      "Error parsing METAR report: ETWM 010020Z AUTO 03004KT //// // ////// 13/08 Q1023 ///. Error: Unparsed groups in body '///' while processing 'ETWM 010020Z AUTO 03004KT //// // ////// 13/08 Q1023 ///'\n",
      "Error parsing METAR report: ETWM 010020Z AUTO 03004KT //// // ////// 13/08 Q1023 ///. Error: Unparsed groups in body '///' while processing 'ETWM 010020Z AUTO 03004KT //// // ////// 13/08 Q1023 ///'\n",
      "Error parsing METAR report: ETWM 010020Z AUTO 03004KT //// // ////// 13/08 Q1023 ///. Error: Unparsed groups in body '///' while processing 'ETWM 010020Z AUTO 03004KT //// // ////// 13/08 Q1023 ///'\n",
      "Error parsing METAR report: ETWM 010020Z AUTO 03004KT //// // ////// 13/08 Q1023 ///. Error: Unparsed groups in body '///' while processing 'ETWM 010020Z AUTO 03004KT //// // ////// 13/08 Q1023 ///'\n",
      "Error parsing METAR report: ETWM 010020Z AUTO 03004KT //// // ////// 13/08 Q1023 ///. Error: Unparsed groups in body '///' while processing 'ETWM 010020Z AUTO 03004KT //// // ////// 13/08 Q1023 ///'\n",
      "Error parsing METAR report: ETWM 010020Z AUTO 03004KT //// // ////// 13/08 Q1023 ///. Error: Unparsed groups in body '///' while processing 'ETWM 010020Z AUTO 03004KT //// // ////// 13/08 Q1023 ///'\n",
      "Error parsing METAR report: HKGO 010000Z AUTO 12007KT 13/13 Q1025 A30.28. Error: Unparsed groups in body 'A30.28' while processing 'HKGO 010000Z AUTO 12007KT 13/13 Q1025 A30.28'\n",
      "Error parsing METAR report: HKGO 010000Z AUTO 12007KT 13/13 Q1025 A30.28. Error: Unparsed groups in body 'A30.28' while processing 'HKGO 010000Z AUTO 12007KT 13/13 Q1025 A30.28'\n",
      "Error parsing METAR report: HKMO 010000Z 24003KTKT 9999 FEW022 21/19 Q1014 NOSIG. Error: Unparsed groups in body '24003KTKT' while processing 'HKMO 010000Z 24003KTKT 9999 FEW022 21/19 Q1014 NOSIG'\n",
      "Error parsing METAR report: HKMO 010000Z 24003KTKT 9999 FEW022 21/19 Q1014 NOSIG. Error: Unparsed groups in body '24003KTKT' while processing 'HKMO 010000Z 24003KTKT 9999 FEW022 21/19 Q1014 NOSIG'\n",
      "Error parsing METAR report: HKMO 010030Z 24003KTKT 9999 FEW021 21/19 Q1015 NOSIG. Error: Unparsed groups in body '24003KTKT' while processing 'HKMO 010030Z 24003KTKT 9999 FEW021 21/19 Q1015 NOSIG'\n",
      "Error parsing METAR report: HKMO 010030Z 24003KTKT 9999 FEW021 21/19 Q1015 NOSIG. Error: Unparsed groups in body '24003KTKT' while processing 'HKMO 010030Z 24003KTKT 9999 FEW021 21/19 Q1015 NOSIG'\n",
      "Error parsing METAR report: HTMW 010000Z 12006KT 9999 FEW018 FEW019CB BKN080 20/18 Q1016 NO SIG. Error: Unparsed groups in body 'NO SIG' while processing 'HTMW 010000Z 12006KT 9999 FEW018 FEW019CB BKN080 20/18 Q1016 NO SIG'\n",
      "Error parsing METAR report: HTMW 010000Z 12006KT 9999 FEW018 FEW019CB BKN080 20/18 Q1016 NO SIG. Error: Unparsed groups in body 'NO SIG' while processing 'HTMW 010000Z 12006KT 9999 FEW018 FEW019CB BKN080 20/18 Q1016 NO SIG'\n",
      "Error parsing METAR report: K1CN 312355Z AUTO 18004KT 10SM M 31/11 A2999 RMK AO2 SLP151 T03080107 10323 20296 57009 $. Error: Unparsed groups in body 'M' while processing 'K1CN 312355Z AUTO 18004KT 10SM M 31/11 A2999 RMK AO2 SLP151 T03080107 10323 20296 57009 $'\n",
      "Error parsing METAR report: K1IN 312355Z AUTO 21006KT 10SM M 31/07 A2999 RMK AO2 SLP152 T03100068 10325 20297 57010 $. Error: Unparsed groups in body 'M' while processing 'K1IN 312355Z AUTO 21006KT 10SM M 31/07 A2999 RMK AO2 SLP152 T03100068 10325 20297 57010 $'\n",
      "Error parsing METAR report: K1KN 312355Z AUTO 00000KT 10SM M 30/11 A3000 RMK AO2 SLP153 T03000105 10318 20297 57011 $. Error: Unparsed groups in body 'M' while processing 'K1KN 312355Z AUTO 00000KT 10SM M 30/11 A3000 RMK AO2 SLP153 T03000105 10318 20297 57011 $'\n",
      "Error parsing METAR report: K1MW 312356Z AUTO 17004KT 10SM M 29/05 A3009 RMK AO2 RAE01 SLP142 P0000 60003 T02940054 10351 20258 55000 $. Error: Unparsed groups in body 'M' while processing 'K1MW 312356Z AUTO 17004KT 10SM M 29/05 A3009 RMK AO2 RAE01 SLP142 P0000 60003 T02940054 10351 20258 55000 $'\n",
      "Error parsing METAR report: K1MW 312356Z AUTO 17004KT 10SM M 29/05 A3009 RMK AO2 RAE01 SLP142 P0000 60003 T02940054 10351 20258 55000 $. Error: Unparsed groups in body 'M' while processing 'K1MW 312356Z AUTO 17004KT 10SM M 29/05 A3009 RMK AO2 RAE01 SLP142 P0000 60003 T02940054 10351 20258 55000 $'\n",
      "Error parsing METAR report: K1NN 312355Z AUTO M M M M M M RMK AO2 SLPNO RVRNO $. Error: Unparsed groups in body 'M M M M M M' while processing 'K1NN 312355Z AUTO M M M M M M RMK AO2 SLPNO RVRNO $'\n",
      "Error parsing METAR report: KAGR 312355Z AUTO 31004KT 10SM VCTS M 29/23 A2996 RMK AO2 RAE2257 SLP147 P0000 60000 T02860230 10353 20286 53014 CHINO RWY23 $. Error: Unparsed groups in body 'M' while processing 'KAGR 312355Z AUTO 31004KT 10SM VCTS M 29/23 A2996 RMK AO2 RAE2257 SLP147 P0000 60000 T02860230 10353 20286 53014 CHINO RWY23 $'\n",
      "Error parsing METAR report: KCRX 312355Z AUTO 4.20000004KT 10SM CLR 27/14 A2999 RMK AO2. Error: Unparsed groups in body '4.20000004KT' while processing 'KCRX 312355Z AUTO 4.20000004KT 10SM CLR 27/14 A2999 RMK AO2'\n",
      "Error parsing METAR report: KCRX 312355Z AUTO 4.20000004KT 10SM CLR 27/14 A2999 RMK AO2. Error: Unparsed groups in body '4.20000004KT' while processing 'KCRX 312355Z AUTO 4.20000004KT 10SM CLR 27/14 A2999 RMK AO2'\n",
      "Error parsing METAR report: KCRX 312355Z AUTO 4.20000004KT 10SM CLR 27/14 A2999 RMK AO2. Error: Unparsed groups in body '4.20000004KT' while processing 'KCRX 312355Z AUTO 4.20000004KT 10SM CLR 27/14 A2999 RMK AO2'\n",
      "Error parsing METAR report: KMTN 312355Z 28006KT 10 CLR 23/12 A2990. Error: Unparsed groups in body '10' while processing 'KMTN 312355Z 28006KT 10 CLR 23/12 A2990'\n",
      "Error parsing METAR report: KMTN 312355Z 28006KT 10 CLR 23/12 A2990. Error: Unparsed groups in body '10' while processing 'KMTN 312355Z 28006KT 10 CLR 23/12 A2990'\n",
      "Error parsing METAR report: KMTN 312355Z 28006KT 10 CLR 23/12 A2990. Error: Unparsed groups in body '10' while processing 'KMTN 312355Z 28006KT 10 CLR 23/12 A2990'\n",
      "Error parsing METAR report: KMTN 312355Z 28006KT 10 CLR 23/12 A2990. Error: Unparsed groups in body '10' while processing 'KMTN 312355Z 28006KT 10 CLR 23/12 A2990'\n",
      "Error parsing METAR report: KMTN 312355Z 28006KT 10 CLR 23/12 A2990. Error: Unparsed groups in body '10' while processing 'KMTN 312355Z 28006KT 10 CLR 23/12 A2990'\n",
      "Error parsing METAR report: KMTN 312355Z 28006KT 10 CLR 23/12 A2990. Error: Unparsed groups in body '10' while processing 'KMTN 312355Z 28006KT 10 CLR 23/12 A2990'\n",
      "Error parsing METAR report: KQEJ 312350Z AUTO 22001KT 9999 // OVC005 21/21 / RMK A02 TSNO. Error: Unparsed groups in body '/' while processing 'KQEJ 312350Z AUTO 22001KT 9999 // OVC005 21/21 / RMK A02 TSNO'\n",
      "Error parsing METAR report: KQEJ 312350Z AUTO 22001KT 9999 // OVC005 21/21 / RMK A02 TSNO. Error: Unparsed groups in body '/' while processing 'KQEJ 312350Z AUTO 22001KT 9999 // OVC005 21/21 / RMK A02 TSNO'\n",
      "Error parsing METAR report: KQEJ 010000Z AUTO 08001KT 9999 // OVC005 21/21 / RMK A02 TSNO. Error: Unparsed groups in body '/' while processing 'KQEJ 010000Z AUTO 08001KT 9999 // OVC005 21/21 / RMK A02 TSNO'\n",
      "Error parsing METAR report: KQEJ 010000Z AUTO 08001KT 9999 // OVC005 21/21 / RMK A02 TSNO. Error: Unparsed groups in body '/' while processing 'KQEJ 010000Z AUTO 08001KT 9999 // OVC005 21/21 / RMK A02 TSNO'\n",
      "Error parsing METAR report: KQEJ 010010Z AUTO 09002KT 8000 // OVC006 21/21 / RMK A02 TSNO. Error: Unparsed groups in body '/' while processing 'KQEJ 010010Z AUTO 09002KT 8000 // OVC006 21/21 / RMK A02 TSNO'\n",
      "Error parsing METAR report: KQEJ 010010Z AUTO 09002KT 8000 // OVC006 21/21 / RMK A02 TSNO. Error: Unparsed groups in body '/' while processing 'KQEJ 010010Z AUTO 09002KT 8000 // OVC006 21/21 / RMK A02 TSNO'\n",
      "Error parsing METAR report: KQEJ 010020Z AUTO 06001KT 9999 // OVC006 21/21 / RMK A02 TSNO. Error: Unparsed groups in body '/' while processing 'KQEJ 010020Z AUTO 06001KT 9999 // OVC006 21/21 / RMK A02 TSNO'\n",
      "Error parsing METAR report: KQEJ 010020Z AUTO 06001KT 9999 // OVC006 21/21 / RMK A02 TSNO. Error: Unparsed groups in body '/' while processing 'KQEJ 010020Z AUTO 06001KT 9999 // OVC006 21/21 / RMK A02 TSNO'\n",
      "Error parsing METAR report: KQEJ 010030Z AUTO 04001KT 6000 // OVC006 21/21 / RMK A02 TSNO. Error: Unparsed groups in body '/' while processing 'KQEJ 010030Z AUTO 04001KT 6000 // OVC006 21/21 / RMK A02 TSNO'\n",
      "Error parsing METAR report: KQEJ 010030Z AUTO 04001KT 6000 // OVC006 21/21 / RMK A02 TSNO. Error: Unparsed groups in body '/' while processing 'KQEJ 010030Z AUTO 04001KT 6000 // OVC006 21/21 / RMK A02 TSNO'\n",
      "Error parsing METAR report: KQEJ 010040Z AUTO 07002KT 9999 // OVC006 21/21 / RMK A02 TSNO. Error: Unparsed groups in body '/' while processing 'KQEJ 010040Z AUTO 07002KT 9999 // OVC006 21/21 / RMK A02 TSNO'\n",
      "Error parsing METAR report: KQEJ 010040Z AUTO 07002KT 9999 // OVC006 21/21 / RMK A02 TSNO. Error: Unparsed groups in body '/' while processing 'KQEJ 010040Z AUTO 07002KT 9999 // OVC006 21/21 / RMK A02 TSNO'\n",
      "Error parsing METAR report: KQEN 312350Z AUTO 23002KT 9999 BKN220 / / RMK A02 TSNO. Error: Unparsed groups in body '/ /' while processing 'KQEN 312350Z AUTO 23002KT 9999 BKN220 / / RMK A02 TSNO'\n",
      "Error parsing METAR report: KQEN 312350Z AUTO 23002KT 9999 BKN220 / / RMK A02 TSNO. Error: Unparsed groups in body '/ /' while processing 'KQEN 312350Z AUTO 23002KT 9999 BKN220 / / RMK A02 TSNO'\n",
      "Error parsing METAR report: KQEN 010000Z AUTO 23002KT 9999 BKN220 / / RMK A02 TSNO. Error: Unparsed groups in body '/ /' while processing 'KQEN 010000Z AUTO 23002KT 9999 BKN220 / / RMK A02 TSNO'\n",
      "Error parsing METAR report: KQEN 010000Z AUTO 23002KT 9999 BKN220 / / RMK A02 TSNO. Error: Unparsed groups in body '/ /' while processing 'KQEN 010000Z AUTO 23002KT 9999 BKN220 / / RMK A02 TSNO'\n",
      "Error parsing METAR report: KQEN 010010Z AUTO 23002KT 9999 BKN220 / / RMK A02 TSNO. Error: Unparsed groups in body '/ /' while processing 'KQEN 010010Z AUTO 23002KT 9999 BKN220 / / RMK A02 TSNO'\n",
      "Error parsing METAR report: KQEN 010010Z AUTO 23002KT 9999 BKN220 / / RMK A02 TSNO. Error: Unparsed groups in body '/ /' while processing 'KQEN 010010Z AUTO 23002KT 9999 BKN220 / / RMK A02 TSNO'\n",
      "Error parsing METAR report: KQEN 010020Z AUTO 25002KT 9999 BKN220 / / RMK A02 TSNO. Error: Unparsed groups in body '/ /' while processing 'KQEN 010020Z AUTO 25002KT 9999 BKN220 / / RMK A02 TSNO'\n",
      "Error parsing METAR report: KQEN 010020Z AUTO 25002KT 9999 BKN220 / / RMK A02 TSNO. Error: Unparsed groups in body '/ /' while processing 'KQEN 010020Z AUTO 25002KT 9999 BKN220 / / RMK A02 TSNO'\n",
      "Error parsing METAR report: KQEN 010030Z AUTO 22001KT 9999 BKN220 / / RMK A02 TSNO. Error: Unparsed groups in body '/ /' while processing 'KQEN 010030Z AUTO 22001KT 9999 BKN220 / / RMK A02 TSNO'\n",
      "Error parsing METAR report: KQEN 010030Z AUTO 22001KT 9999 BKN220 / / RMK A02 TSNO. Error: Unparsed groups in body '/ /' while processing 'KQEN 010030Z AUTO 22001KT 9999 BKN220 / / RMK A02 TSNO'\n",
      "Error parsing METAR report: KQEN 010040Z AUTO 17001KT 9999 BKN220 / / RMK A02 TSNO. Error: Unparsed groups in body '/ /' while processing 'KQEN 010040Z AUTO 17001KT 9999 BKN220 / / RMK A02 TSNO'\n",
      "Error parsing METAR report: KQEN 010040Z AUTO 17001KT 9999 BKN220 / / RMK A02 TSNO. Error: Unparsed groups in body '/ /' while processing 'KQEN 010040Z AUTO 17001KT 9999 BKN220 / / RMK A02 TSNO'\n",
      "Error parsing METAR report: KQM2 312355Z AUTO M 9999 FEW018 SCT024 25/21 A2996 RMK AO2 SLP148 WND DATA ESTMD T02490212 10253 20247 56006 $. Error: Unparsed groups in body 'M' while processing 'KQM2 312355Z AUTO M 9999 FEW018 SCT024 25/21 A2996 RMK AO2 SLP148 WND DATA ESTMD T02490212 10253 20247 56006 $'\n",
      "Error parsing METAR report: KQVB 312358Z AUTO M M M M M M RMK AO2 SLPNO PWINO PNO TSNO $. Error: Unparsed groups in body 'M M M M M M' while processing 'KQVB 312358Z AUTO M M M M M M RMK AO2 SLPNO PWINO PNO TSNO $'\n",
      "Error parsing METAR report: KQVB 312358Z AUTO M M M M M M RMK AO2 SLPNO PWINO PNO TSNO $. Error: Unparsed groups in body 'M M M M M M' while processing 'KQVB 312358Z AUTO M M M M M M RMK AO2 SLPNO PWINO PNO TSNO $'\n",
      "Error parsing METAR report: LGIO 312350Z AUTO VRB01KT //// // ////// 17/17 Q1014 RE//. Error: Unparsed groups in body 'RE//' while processing 'LGIO 312350Z AUTO VRB01KT //// // ////// 17/17 Q1014 RE//'\n",
      "Error parsing METAR report: LGIO 010020Z AUTO VRB02KT //// // ////// 17/16 Q1014 RE//. Error: Unparsed groups in body 'RE//' while processing 'LGIO 010020Z AUTO VRB02KT //// // ////// 17/16 Q1014 RE//'\n",
      "Error parsing METAR report: LGKP 010000Z AUTO 29015KT //// -RA ////// 25/23 Q1009 RE//. Error: Unparsed groups in body 'RE//' while processing 'LGKP 010000Z AUTO 29015KT //// -RA ////// 25/23 Q1009 RE//'\n",
      "Error parsing METAR report: LGKP 010000Z AUTO 29015KT //// -RA ////// 25/23 Q1009 RE//. Error: Unparsed groups in body 'RE//' while processing 'LGKP 010000Z AUTO 29015KT //// -RA ////// 25/23 Q1009 RE//'\n",
      "Error parsing METAR report: LGKP 010030Z AUTO 31014KT //// -RA ////// 25/23 Q1009 RE//. Error: Unparsed groups in body 'RE//' while processing 'LGKP 010030Z AUTO 31014KT //// -RA ////// 25/23 Q1009 RE//'\n",
      "Error parsing METAR report: LGKP 010030Z AUTO 31014KT //// -RA ////// 25/23 Q1009 RE//. Error: Unparsed groups in body 'RE//' while processing 'LGKP 010030Z AUTO 31014KT //// -RA ////// 25/23 Q1009 RE//'\n",
      "Error parsing METAR report: LGKP 010030Z AUTO 31014KT //// -RA ////// 25/23 Q1009 RE//. Error: Unparsed groups in body 'RE//' while processing 'LGKP 010030Z AUTO 31014KT //// -RA ////// 25/23 Q1009 RE//'\n",
      "Error parsing METAR report: LGKZ 312350Z AUTO 35004KT 310V010 //// // ////// 18/14 Q1014 RE//. Error: Unparsed groups in body 'RE//' while processing 'LGKZ 312350Z AUTO 35004KT 310V010 //// // ////// 18/14 Q1014 RE//'\n",
      "Error parsing METAR report: LGKZ 312350Z AUTO 35004KT 310V010 //// // ////// 18/14 Q1014 RE//. Error: Unparsed groups in body 'RE//' while processing 'LGKZ 312350Z AUTO 35004KT 310V010 //// // ////// 18/14 Q1014 RE//'\n",
      "Error parsing METAR report: LGKZ 312350Z AUTO 35004KT 310V010 //// // ////// 18/14 Q1014 RE//. Error: Unparsed groups in body 'RE//' while processing 'LGKZ 312350Z AUTO 35004KT 310V010 //// // ////// 18/14 Q1014 RE//'\n",
      "Error parsing METAR report: LGKZ 010020Z AUTO 34006KT //// // ////// 18/14 Q1014 RE//. Error: Unparsed groups in body 'RE//' while processing 'LGKZ 010020Z AUTO 34006KT //// // ////// 18/14 Q1014 RE//'\n",
      "Error parsing METAR report: LGKZ 010020Z AUTO 34006KT //// // ////// 18/14 Q1014 RE//. Error: Unparsed groups in body 'RE//' while processing 'LGKZ 010020Z AUTO 34006KT //// // ////// 18/14 Q1014 RE//'\n",
      "Error parsing METAR report: LGKZ 010020Z AUTO 34006KT //// // ////// 18/14 Q1014 RE//. Error: Unparsed groups in body 'RE//' while processing 'LGKZ 010020Z AUTO 34006KT //// // ////// 18/14 Q1014 RE//'\n",
      "Error parsing METAR report: LGPA 312350Z AUTO 35004KT //// // ////// 24/21 Q1010 RE//. Error: Unparsed groups in body 'RE//' while processing 'LGPA 312350Z AUTO 35004KT //// // ////// 24/21 Q1010 RE//'\n",
      "Error parsing METAR report: LGPA 312350Z AUTO 35004KT //// // ////// 24/21 Q1010 RE//. Error: Unparsed groups in body 'RE//' while processing 'LGPA 312350Z AUTO 35004KT //// // ////// 24/21 Q1010 RE//'\n",
      "Error parsing METAR report: LGPA 010020Z AUTO VRB02KT //// // ////// 24/21 Q1010 RE//. Error: Unparsed groups in body 'RE//' while processing 'LGPA 010020Z AUTO VRB02KT //// // ////// 24/21 Q1010 RE//'\n",
      "Error parsing METAR report: LGPA 010020Z AUTO VRB02KT //// // ////// 24/21 Q1010 RE//. Error: Unparsed groups in body 'RE//' while processing 'LGPA 010020Z AUTO VRB02KT //// // ////// 24/21 Q1010 RE//'\n",
      "Error parsing METAR report: LGSO 312350Z AUTO VRB03KT //// // ////// 25/19 Q1010 RE//. Error: Unparsed groups in body 'RE//' while processing 'LGSO 312350Z AUTO VRB03KT //// // ////// 25/19 Q1010 RE//'\n",
      "Error parsing METAR report: LGSO 312350Z AUTO VRB03KT //// // ////// 25/19 Q1010 RE//. Error: Unparsed groups in body 'RE//' while processing 'LGSO 312350Z AUTO VRB03KT //// // ////// 25/19 Q1010 RE//'\n",
      "Error parsing METAR report: LGSO 312350Z AUTO VRB03KT //// // ////// 25/19 Q1010 RE//. Error: Unparsed groups in body 'RE//' while processing 'LGSO 312350Z AUTO VRB03KT //// // ////// 25/19 Q1010 RE//'\n",
      "Error parsing METAR report: LGSO 010020Z AUTO 00000KT //// // ////// 25/20 Q1010 RE//. Error: Unparsed groups in body 'RE//' while processing 'LGSO 010020Z AUTO 00000KT //// // ////// 25/20 Q1010 RE//'\n",
      "Error parsing METAR report: LGSO 010020Z AUTO 00000KT //// // ////// 25/20 Q1010 RE//. Error: Unparsed groups in body 'RE//' while processing 'LGSO 010020Z AUTO 00000KT //// // ////// 25/20 Q1010 RE//'\n",
      "Error parsing METAR report: LGSO 010020Z AUTO 00000KT //// // ////// 25/20 Q1010 RE//. Error: Unparsed groups in body 'RE//' while processing 'LGSO 010020Z AUTO 00000KT //// // ////// 25/20 Q1010 RE//'\n",
      "Error parsing METAR report: MDBH 010000Z 13008KT 9999 FEW018CB FEW020 BKN300 30/26 Q1013 CB/SE/S/W/N. Error: Unparsed groups in body 'CB/SE/S/W/N' while processing 'MDBH 010000Z 13008KT 9999 FEW018CB FEW020 BKN300 30/26 Q1013 CB/SE/S/W/N'\n",
      "Error parsing METAR report: MDJB 010000Z 00000KT 9999 FEW016CB SCT018 25/24 Q1013 CB/E. Error: Unparsed groups in body 'CB/E' while processing 'MDJB 010000Z 00000KT 9999 FEW016CB SCT018 25/24 Q1013 CB/E'\n",
      "Error parsing METAR report: MDSD 010000Z 05006KT 9999 FEW016 SCT016 BKN300 25/24 Q1014 CB/SE/SW/NW. Error: Unparsed groups in body 'CB/SE/SW/NW' while processing 'MDSD 010000Z 05006KT 9999 FEW016 SCT016 BKN300 25/24 Q1014 CB/SE/SW/NW'\n",
      "Error parsing METAR report: MDSD 010000Z 05006KT 9999 FEW016 SCT016 BKN300 25/24 Q1014 CB/SE/SW/NW. Error: Unparsed groups in body 'CB/SE/SW/NW' while processing 'MDSD 010000Z 05006KT 9999 FEW016 SCT016 BKN300 25/24 Q1014 CB/SE/SW/NW'\n",
      "Error parsing METAR report: MDSD 010000Z 05006KT 9999 FEW016 SCT016 BKN300 25/24 Q1014 CB/SE/SW/NW. Error: Unparsed groups in body 'CB/SE/SW/NW' while processing 'MDSD 010000Z 05006KT 9999 FEW016 SCT016 BKN300 25/24 Q1014 CB/SE/SW/NW'\n",
      "Error parsing METAR report: MDSD 010000Z 05006KT 9999 FEW016 SCT016 BKN300 25/24 Q1014 CB/SE/SW/NW. Error: Unparsed groups in body 'CB/SE/SW/NW' while processing 'MDSD 010000Z 05006KT 9999 FEW016 SCT016 BKN300 25/24 Q1014 CB/SE/SW/NW'\n",
      "Error parsing METAR report: MDSD 010000Z 05006KT 9999 FEW016 SCT016 BKN300 25/24 Q1014 CB/SE/SW/NW. Error: Unparsed groups in body 'CB/SE/SW/NW' while processing 'MDSD 010000Z 05006KT 9999 FEW016 SCT016 BKN300 25/24 Q1014 CB/SE/SW/NW'\n",
      "Error parsing METAR report: MDSD 010000Z 05006KT 9999 FEW016 SCT016 BKN300 25/24 Q1014 CB/SE/SW/NW. Error: Unparsed groups in body 'CB/SE/SW/NW' while processing 'MDSD 010000Z 05006KT 9999 FEW016 SCT016 BKN300 25/24 Q1014 CB/SE/SW/NW'\n",
      "Error parsing METAR report: MDST 010000Z 11004KT 9999 FEW016CB SCT017 BKN300 27/24 Q1014 CB/SW. Error: Unparsed groups in body 'CB/SW' while processing 'MDST 010000Z 11004KT 9999 FEW016CB SCT017 BKN300 27/24 Q1014 CB/SW'\n",
      "Error parsing METAR report: MDST 010000Z 11004KT 9999 FEW016CB SCT017 BKN300 27/24 Q1014 CB/SW. Error: Unparsed groups in body 'CB/SW' while processing 'MDST 010000Z 11004KT 9999 FEW016CB SCT017 BKN300 27/24 Q1014 CB/SW'\n",
      "Error parsing METAR report: MDST 010000Z 11004KT 9999 FEW016CB SCT017 BKN300 27/24 Q1014 CB/SW. Error: Unparsed groups in body 'CB/SW' while processing 'MDST 010000Z 11004KT 9999 FEW016CB SCT017 BKN300 27/24 Q1014 CB/SW'\n",
      "Error parsing METAR report: MGCB 010000Z 00000KT 9999 BKN016 FEW022CB 21/19 QFE868.2 RERA CB/PCPN W MTN N/NW CUB/CL. Error: Unparsed groups in body 'QFE868.2 CB/PCPN W MTN N/NW CUB/CL' while processing 'MGCB 010000Z 00000KT 9999 BKN016 FEW022CB 21/19 QFE868.2 RERA CB/PCPN W MTN N/NW CUB/CL'\n",
      "Error parsing METAR report: MGES 010000Z 00000KT 9999 SCT018TCU OVC200 24/20 QFE906.6 FEW090 TCU NNW. Error: Unparsed groups in body 'QFE906.6 FEW090 TCU NNW' while processing 'MGES 010000Z 00000KT 9999 SCT018TCU OVC200 24/20 QFE906.6 FEW090 TCU NNW'\n",
      "Error parsing METAR report: MGGT 010000Z 22006KT 4000 TSRA SCT012 SCT024CB BKN080 19/18 Q1018 A3006 CB/TS WSW/W CB N/E/S/WNW. Error: Unparsed groups in body 'CB/TS WSW/W CB N/E/S/WNW' while processing 'MGGT 010000Z 22006KT 4000 TSRA SCT012 SCT024CB BKN080 19/18 Q1018 A3006 CB/TS WSW/W CB N/E/S/WNW'\n",
      "Error parsing METAR report: MGGT 010000Z 22006KT 4000 TSRA SCT012 SCT024CB BKN080 19/18 Q1018 A3006 CB/TS WSW/W CB N/E/S/WNW. Error: Unparsed groups in body 'CB/TS WSW/W CB N/E/S/WNW' while processing 'MGGT 010000Z 22006KT 4000 TSRA SCT012 SCT024CB BKN080 19/18 Q1018 A3006 CB/TS WSW/W CB N/E/S/WNW'\n",
      "Error parsing METAR report: MGGT 010000Z 22006KT 4000 TSRA SCT012 SCT024CB BKN080 19/18 Q1018 A3006 CB/TS WSW/W CB N/E/S/WNW. Error: Unparsed groups in body 'CB/TS WSW/W CB N/E/S/WNW' while processing 'MGGT 010000Z 22006KT 4000 TSRA SCT012 SCT024CB BKN080 19/18 Q1018 A3006 CB/TS WSW/W CB N/E/S/WNW'\n",
      "Error parsing METAR report: MGGT 010000Z 22006KT 4000 TSRA SCT012 SCT024CB BKN080 19/18 Q1018 A3006 CB/TS WSW/W CB N/E/S/WNW. Error: Unparsed groups in body 'CB/TS WSW/W CB N/E/S/WNW' while processing 'MGGT 010000Z 22006KT 4000 TSRA SCT012 SCT024CB BKN080 19/18 Q1018 A3006 CB/TS WSW/W CB N/E/S/WNW'\n",
      "Error parsing METAR report: MGGT 010000Z 22006KT 4000 TSRA SCT012 SCT024CB BKN080 19/18 Q1018 A3006 CB/TS WSW/W CB N/E/S/WNW. Error: Unparsed groups in body 'CB/TS WSW/W CB N/E/S/WNW' while processing 'MGGT 010000Z 22006KT 4000 TSRA SCT012 SCT024CB BKN080 19/18 Q1018 A3006 CB/TS WSW/W CB N/E/S/WNW'\n",
      "Error parsing METAR report: MGGT 010011Z 22006KT 1000 -RA BR SCT012 FEW024CB OVC080 CB/TS E CB N/NE/W BEST APCH N. Error: Unparsed groups in body 'CB/TS E CB N/NE/W BEST APCH N' while processing 'MGGT 010011Z 22006KT 1000 -RA BR SCT012 FEW024CB OVC080 CB/TS E CB N/NE/W BEST APCH N'\n",
      "Error parsing METAR report: MGGT 010011Z 22006KT 1000 -RA BR SCT012 FEW024CB OVC080 CB/TS E CB N/NE/W BEST APCH N. Error: Unparsed groups in body 'CB/TS E CB N/NE/W BEST APCH N' while processing 'MGGT 010011Z 22006KT 1000 -RA BR SCT012 FEW024CB OVC080 CB/TS E CB N/NE/W BEST APCH N'\n",
      "Error parsing METAR report: MGGT 010011Z 22006KT 1000 -RA BR SCT012 FEW024CB OVC080 CB/TS E CB N/NE/W BEST APCH N. Error: Unparsed groups in body 'CB/TS E CB N/NE/W BEST APCH N' while processing 'MGGT 010011Z 22006KT 1000 -RA BR SCT012 FEW024CB OVC080 CB/TS E CB N/NE/W BEST APCH N'\n",
      "Error parsing METAR report: MGMM 010000Z 34010KT 5000 +TSRA SCT018 FEW025CB OVC090 28/23 Q1010 A2983 CB/TS/LTNG N/E/SW/W. Error: Unparsed groups in body 'CB/TS/LTNG N/E/SW/W' while processing 'MGMM 010000Z 34010KT 5000 +TSRA SCT018 FEW025CB OVC090 28/23 Q1010 A2983 CB/TS/LTNG N/E/SW/W'\n",
      "Error parsing METAR report: MGPB 010000Z 03004KT 9999 SCT017 SCT200 28/25 Q1008 A2977 CB DIST S. Error: Unparsed groups in body 'CB DIST S' while processing 'MGPB 010000Z 03004KT 9999 SCT017 SCT200 28/25 Q1008 A2977 CB DIST S'\n",
      "Error parsing METAR report: MGPB 010000Z 03004KT 9999 SCT017 SCT200 28/25 Q1008 A2977 CB DIST S. Error: Unparsed groups in body 'CB DIST S' while processing 'MGPB 010000Z 03004KT 9999 SCT017 SCT200 28/25 Q1008 A2977 CB DIST S'\n",
      "Error parsing METAR report: MGPB 010000Z 03004KT 9999 SCT017 SCT200 28/25 Q1008 A2977 CB DIST S. Error: Unparsed groups in body 'CB DIST S' while processing 'MGPB 010000Z 03004KT 9999 SCT017 SCT200 28/25 Q1008 A2977 CB DIST S'\n",
      "Error parsing METAR report: MGQZ 010000Z 00000KT 9999 BKN012 BKN080 15/15 QFE770.9 PCPN N/NE/W. Error: Unparsed groups in body 'QFE770.9 PCPN N/NE/W' while processing 'MGQZ 010000Z 00000KT 9999 BKN012 BKN080 15/15 QFE770.9 PCPN N/NE/W'\n",
      "Error parsing METAR report: MGQZ 010000Z 00000KT 9999 BKN012 BKN080 15/15 QFE770/9 PCPN N/NE/W. Error: Unparsed groups in body 'QFE770/9 PCPN N/NE/W' while processing 'MGQZ 010000Z 00000KT 9999 BKN012 BKN080 15/15 QFE770/9 PCPN N/NE/W'\n",
      "Error parsing METAR report: MGRT 010000Z 14004KT 9999 SCT018 FEW022CB OVC080 26/25 Q1011 A2985 CB SSE/S VOL. SANTA MARIA Y SANTIAGUITO EN ACTIVIDAD. Error: Unparsed groups in body 'CB SSE/S VOL. SANTA MARIA Y SANTIAGUITO EN ACTIVIDAD' while processing 'MGRT 010000Z 14004KT 9999 SCT018 FEW022CB OVC080 26/25 Q1011 A2985 CB SSE/S VOL. SANTA MARIA Y SANTIAGUITO EN ACTIVIDAD'\n",
      "Error parsing METAR report: MGTU 010000Z 36004KT 9999 -TSRA SCT018 FEW022CB OVC070 25/23 CB/TS E/SE. Error: Unparsed groups in body 'CB/TS E/SE' while processing 'MGTU 010000Z 36004KT 9999 -TSRA SCT018 FEW022CB OVC070 25/23 CB/TS E/SE'\n",
      "Error parsing METAR report: MGZA 010000Z 09010KT 9999 FEW028 OVC200 30/20 QFE983.3. Error: Unparsed groups in body 'QFE983.3' while processing 'MGZA 010000Z 09010KT 9999 FEW028 OVC200 30/20 QFE983.3'\n",
      "Error parsing METAR report: MGZA 010000Z 09010KT 9999 FEW028 OVC200 30/20 QFE983/3. Error: Unparsed groups in body 'QFE983/3' while processing 'MGZA 010000Z 09010KT 9999 FEW028 OVC200 30/20 QFE983/3'\n",
      "Error parsing METAR report: MHCH 010000Z 22004KT 5000 TSVCSH FEW007 FEW029CB OVC070 24/21. Error: Unparsed groups in body 'TSVCSH' while processing 'MHCH 010000Z 22004KT 5000 TSVCSH FEW007 FEW029CB OVC070 24/21'\n",
      "Error parsing METAR report: MHCH 010000Z 22004KT 5000 TSVCSH FEW007 FEW029CB OVC070 24/21. Error: Unparsed groups in body 'TSVCSH' while processing 'MHCH 010000Z 22004KT 5000 TSVCSH FEW007 FEW029CB OVC070 24/21'\n",
      "Error parsing METAR report: MHCH 010000Z 22004KT 5000 TSVCSH FEW007 FEW029CB OVC070 24/21. Error: Unparsed groups in body 'TSVCSH' while processing 'MHCH 010000Z 22004KT 5000 TSVCSH FEW007 FEW029CB OVC070 24/21'\n",
      "Error parsing METAR report: MHGS 010000Z 36010KT 6000 TSVCSH SCT034TCU FEW036CB 22/21. Error: Unparsed groups in body 'TSVCSH' while processing 'MHGS 010000Z 36010KT 6000 TSVCSH SCT034TCU FEW036CB 22/21'\n",
      "Error parsing METAR report: MHTG 010000Z 26009KT 7000 TSVCSH SCT036TCU FEW038CB BKN090 23/19 Q1015 A2997 BECMG 4000 TSRA. Error: Unparsed groups in body 'TSVCSH' while processing 'MHTG 010000Z 26009KT 7000 TSVCSH SCT036TCU FEW038CB BKN090 23/19 Q1015 A2997 BECMG 4000 TSRA'\n",
      "Error parsing METAR report: MHTG 010000Z 26009KT 7000 TSVCSH SCT036TCU FEW038CB BKN090 23/19 Q1015 A2997 BECMG 4000 TSRA. Error: Unparsed groups in body 'TSVCSH' while processing 'MHTG 010000Z 26009KT 7000 TSVCSH SCT036TCU FEW038CB BKN090 23/19 Q1015 A2997 BECMG 4000 TSRA'\n",
      "Error parsing METAR report: MHTR 010000Z 00000KT 9999 SCT022TCUFEW024CB BKN070 27/24. Error: Unparsed groups in body 'SCT022TCUFEW024CB' while processing 'MHTR 010000Z 00000KT 9999 SCT022TCUFEW024CB BKN070 27/24'\n",
      "Error parsing METAR report: MHTR 010000Z 00000KT 9999 SCT022TCUFEW024CB BKN070 27/24. Error: Unparsed groups in body 'SCT022TCUFEW024CB' while processing 'MHTR 010000Z 00000KT 9999 SCT022TCUFEW024CB BKN070 27/24'\n",
      "Error parsing METAR report: MMZC 010043Z E00000KT 10SM OVC040 18/14 A3020 RMK 8/8// RA W BINOVC. Error: Unparsed groups in body 'E00000KT' while processing 'MMZC 010043Z E00000KT 10SM OVC040 18/14 A3020 RMK 8/8// RA W BINOVC'\n",
      "Error parsing METAR report: MMZC 010043Z E00000KT 10SM OVC040 18/14 A3020 RMK 8/8// RA W BINOVC. Error: Unparsed groups in body 'E00000KT' while processing 'MMZC 010043Z E00000KT 10SM OVC040 18/14 A3020 RMK 8/8// RA W BINOVC'\n",
      "Error parsing METAR report: MMZC 010043Z E00000KT 10SM OVC040 18/14 A3020 RMK 8/8// RA W BINOVC. Error: Unparsed groups in body 'E00000KT' while processing 'MMZC 010043Z E00000KT 10SM OVC040 18/14 A3020 RMK 8/8// RA W BINOVC'\n",
      "Error parsing METAR report: MNMG 010000Z 000000KT 9000 FEW020CB SCT023 26/22 Q1009 A2980 CB/ 4/C FU BECMG 8000 -DZ. Error: Unparsed groups in body 'CB/ 4/C FU' while processing 'MNMG 010000Z 000000KT 9000 FEW020CB SCT023 26/22 Q1009 A2980 CB/ 4/C FU BECMG 8000 -DZ'\n",
      "Error parsing METAR report: MNMG 010000Z 000000KT 9000 FEW020CB SCT023 26/22 Q1009 A2980 CB/ 4/C FU BECMG 8000 -DZ. Error: Unparsed groups in body 'CB/ 4/C FU' while processing 'MNMG 010000Z 000000KT 9000 FEW020CB SCT023 26/22 Q1009 A2980 CB/ 4/C FU BECMG 8000 -DZ'\n",
      "Error parsing METAR report: MNMG 010000Z 000000KT 9000 FEW020CB SCT023 26/22 Q1009 A2980 CB/ 4/C FU BECMG 8000 -DZ. Error: Unparsed groups in body 'CB/ 4/C FU' while processing 'MNMG 010000Z 000000KT 9000 FEW020CB SCT023 26/22 Q1009 A2980 CB/ 4/C FU BECMG 8000 -DZ'\n",
      "Error parsing METAR report: MNMG 010000Z 000000KT 9000 FEW020CB SCT023 26/22 Q1009 A2980 CB/ 4/C FU BECMG 8000 -DZ. Error: Unparsed groups in body 'CB/ 4/C FU' while processing 'MNMG 010000Z 000000KT 9000 FEW020CB SCT023 26/22 Q1009 A2980 CB/ 4/C FU BECMG 8000 -DZ'\n",
      "Error parsing METAR report: MNMG 010000Z 000000KT 9000 FEW020CB SCT023 26/22 Q1009 A2980 CB/ 4/C FU BECMG 8000 -DZ. Error: Unparsed groups in body 'CB/ 4/C FU' while processing 'MNMG 010000Z 000000KT 9000 FEW020CB SCT023 26/22 Q1009 A2980 CB/ 4/C FU BECMG 8000 -DZ'\n",
      "Error parsing METAR report: MNMG 010000Z 000000KT 9000 FEW020CB SCT023 26/22 Q1009 A2980 CB/ 4/C FU BECMG 8000 -DZ. Error: Unparsed groups in body 'CB/ 4/C FU' while processing 'MNMG 010000Z 000000KT 9000 FEW020CB SCT023 26/22 Q1009 A2980 CB/ 4/C FU BECMG 8000 -DZ'\n",
      "Error parsing METAR report: MTPP 312352Z 19011KT 6000 -RA SCT020CB OVC050 23/21 Q1014 A2995 RMK/CB/SE/NE. Error: Unparsed groups in body 'RMK/CB/SE/NE' while processing 'MTPP 312352Z 19011KT 6000 -RA SCT020CB OVC050 23/21 Q1014 A2995 RMK/CB/SE/NE'\n",
      "Error parsing METAR report: MTPP 312352Z 19011KT 6000 -RA SCT020CB OVC050 23/21 Q1014 A2995 RMK/CB/SE/NE. Error: Unparsed groups in body 'RMK/CB/SE/NE' while processing 'MTPP 312352Z 19011KT 6000 -RA SCT020CB OVC050 23/21 Q1014 A2995 RMK/CB/SE/NE'\n",
      "Error parsing METAR report: MTPP 312352Z 19011KT 6000 -RA SCT020CB OVC050 23/21 Q1014 A2995 RMK/CB/SE/NE. Error: Unparsed groups in body 'RMK/CB/SE/NE' while processing 'MTPP 312352Z 19011KT 6000 -RA SCT020CB OVC050 23/21 Q1014 A2995 RMK/CB/SE/NE'\n",
      "Error parsing METAR report: MTPP 312352Z 19011KT 6000 -RA SCT020CB OVC050 23/21 Q1014 A2995 RMK/CB/SE/NE. Error: Unparsed groups in body 'RMK/CB/SE/NE' while processing 'MTPP 312352Z 19011KT 6000 -RA SCT020CB OVC050 23/21 Q1014 A2995 RMK/CB/SE/NE'\n",
      "Error parsing METAR report: MTPP 312352Z 19011KT 6000 -RA SCT020CB OVC050 23/21 Q1014 A2995 RMK/CB/SE/NE. Error: Unparsed groups in body 'RMK/CB/SE/NE' while processing 'MTPP 312352Z 19011KT 6000 -RA SCT020CB OVC050 23/21 Q1014 A2995 RMK/CB/SE/NE'\n",
      "Error parsing METAR report: MTPP 010000Z 19011KT 6000 -RA SCT020CB OVC050 23/21 Q1014 A2995 RMK/CB/NE/SE. Error: Unparsed groups in body 'RMK/CB/NE/SE' while processing 'MTPP 010000Z 19011KT 6000 -RA SCT020CB OVC050 23/21 Q1014 A2995 RMK/CB/NE/SE'\n",
      "Error parsing METAR report: MTPP 010000Z 19011KT 6000 -RA SCT020CB OVC050 23/21 Q1014 A2995 RMK/CB/NE/SE. Error: Unparsed groups in body 'RMK/CB/NE/SE' while processing 'MTPP 010000Z 19011KT 6000 -RA SCT020CB OVC050 23/21 Q1014 A2995 RMK/CB/NE/SE'\n",
      "Error parsing METAR report: MTPP 010000Z 19011KT 6000 -RA SCT020CB OVC050 23/21 Q1014 A2995 RMK/CB/NE/SE. Error: Unparsed groups in body 'RMK/CB/NE/SE' while processing 'MTPP 010000Z 19011KT 6000 -RA SCT020CB OVC050 23/21 Q1014 A2995 RMK/CB/NE/SE'\n",
      "Error parsing METAR report: MTPP 010000Z 19011KT 6000 -RA SCT020CB OVC050 23/21 Q1014 A2995 RMK/CB/NE/SE. Error: Unparsed groups in body 'RMK/CB/NE/SE' while processing 'MTPP 010000Z 19011KT 6000 -RA SCT020CB OVC050 23/21 Q1014 A2995 RMK/CB/NE/SE'\n",
      "Error parsing METAR report: MTPP 010000Z 19011KT 6000 -RA SCT020CB OVC050 23/21 Q1014 A2995 RMK/CB/NE/SE. Error: Unparsed groups in body 'RMK/CB/NE/SE' while processing 'MTPP 010000Z 19011KT 6000 -RA SCT020CB OVC050 23/21 Q1014 A2995 RMK/CB/NE/SE'\n",
      "Error parsing METAR report: OPST 010000Z 00000KT 4000 FU NSC 29/26 Q1004 NOSIG 85%. Error: Unparsed groups in body '85%' while processing 'OPST 010000Z 00000KT 4000 FU NSC 29/26 Q1004 NOSIG 85%'\n",
      "Error parsing METAR report: OPST 010000Z 00000KT 4000 FU NSC 29/26 Q1004 NOSIG 85%. Error: Unparsed groups in body '85%' while processing 'OPST 010000Z 00000KT 4000 FU NSC 29/26 Q1004 NOSIG 85%'\n",
      "Error parsing METAR report: OPST 010000Z 00000KT 4000 FU NSC 29/26 Q1004 NOSIG 85?. Error: Unparsed groups in body '85?' while processing 'OPST 010000Z 00000KT 4000 FU NSC 29/26 Q1004 NOSIG 85?'\n",
      "Error parsing METAR report: RPMR 010000Z 10005KT 040V140 9999 FEW018 28/22 Q11011 RMK A2965. Error: Unparsed groups in body 'Q11011' while processing 'RPMR 010000Z 10005KT 040V140 9999 FEW018 28/22 Q11011 RMK A2965'\n",
      "Error parsing METAR report: SBLB 010000Z AUTO 11010KT 9999 NCD 20/09 Q1025 W/////. Error: Unparsed groups in body 'W/////' while processing 'SBLB 010000Z AUTO 11010KT 9999 NCD 20/09 Q1025 W/////'\n",
      "Error parsing METAR report: SBLB 010000Z AUTO 11010KT 9999 NCD 20/09 Q1025 W/////. Error: Unparsed groups in body 'W/////' while processing 'SBLB 010000Z AUTO 11010KT 9999 NCD 20/09 Q1025 W/////'\n",
      "Error parsing METAR report: SBLB 010000Z AUTO 11010KT 9999 NCD 20/09 Q1025 W/////. Error: Unparsed groups in body 'W/////' while processing 'SBLB 010000Z AUTO 11010KT 9999 NCD 20/09 Q1025 W/////'\n",
      "Error parsing METAR report: SCIC 010000Z AUTO 18005KT //// R/////// // OVC045 12/08 Q1021. Error: Unparsed groups in body 'R///////' while processing 'SCIC 010000Z AUTO 18005KT //// R/////// // OVC045 12/08 Q1021'\n",
      "Error parsing METAR report: TNCE 312355Z AUTO 04011KT 360V080 //// // ///////// 28/23 Q1013 RE//. Error: Unparsed groups in body 'RE//' while processing 'TNCE 312355Z AUTO 04011KT 360V080 //// // ///////// 28/23 Q1013 RE//'\n",
      "Error parsing METAR report: TNCE 312355Z AUTO 04011KT 360V080 //// // ///////// 28/23 Q1013 RE//. Error: Unparsed groups in body 'RE//' while processing 'TNCE 312355Z AUTO 04011KT 360V080 //// // ///////// 28/23 Q1013 RE//'\n",
      "Error parsing METAR report: TNCE 312355Z AUTO 04011KT 360V080 //// // ///////// 28/23 Q1013 RE//. Error: Unparsed groups in body 'RE//' while processing 'TNCE 312355Z AUTO 04011KT 360V080 //// // ///////// 28/23 Q1013 RE//'\n",
      "Error parsing METAR report: TNCE 312355Z AUTO 04011KT 360V080 //// // ///////// 28/23 Q1013 RE//. Error: Unparsed groups in body 'RE//' while processing 'TNCE 312355Z AUTO 04011KT 360V080 //// // ///////// 28/23 Q1013 RE//'\n",
      "Error parsing METAR report: UHMM 010000Z 21001MPS 9999 FEW050 17/08 Q1011 R10/70D NOSIG RMK QFE744 R28/29001MPS. Error: Unparsed groups in body 'R10/70D' while processing 'UHMM 010000Z 21001MPS 9999 FEW050 17/08 Q1011 R10/70D NOSIG RMK QFE744 R28/29001MPS'\n",
      "Error parsing METAR report: UHMM 010030Z 30001MPS 9999 FEW050 18/08 Q1011 R10/70D NOSIG RMK QFE744 R28/32001MPS. Error: Unparsed groups in body 'R10/70D' while processing 'UHMM 010030Z 30001MPS 9999 FEW050 18/08 Q1011 R10/70D NOSIG RMK QFE744 R28/32001MPS'\n",
      "Error parsing METAR report: UIAA 010000Z 21006MPS 9999 NSC 13/03 Q1011 R29/70D NOSIG RMK QFE700/0933. Error: Unparsed groups in body 'R29/70D' while processing 'UIAA 010000Z 21006MPS 9999 NSC 13/03 Q1011 R29/70D NOSIG RMK QFE700/0933'\n",
      "Error parsing METAR report: UIAA 010030Z 22006MPS 9999 NSC 14/04 Q1011 R29/70D NOSIG RMK QFE700/0933. Error: Unparsed groups in body 'R29/70D' while processing 'UIAA 010030Z 22006MPS 9999 NSC 14/04 Q1011 R29/70D NOSIG RMK QFE700/0933'\n",
      "Error parsing METAR report: UIII 010000Z 00000MPS CAVOK 09/07 Q1013 R30/60D NOSIG RMK QFE715/0954. Error: Unparsed groups in body 'R30/60D' while processing 'UIII 010000Z 00000MPS CAVOK 09/07 Q1013 R30/60D NOSIG RMK QFE715/0954'\n",
      "Error parsing METAR report: UIII 010030Z VRB01MPS CAVOK 11/08 Q1013 R30/60D NOSIG RMK QFE715/0954. Error: Unparsed groups in body 'R30/60D' while processing 'UIII 010030Z VRB01MPS CAVOK 11/08 Q1013 R30/60D NOSIG RMK QFE715/0954'\n",
      "Error parsing METAR report: UIUU 010000Z VRB01MPS 9999 NSC 09/05 Q1013 R26/60D NOSIG RMK QFE716/0955. Error: Unparsed groups in body 'R26/60D' while processing 'UIUU 010000Z VRB01MPS 9999 NSC 09/05 Q1013 R26/60D NOSIG RMK QFE716/0955'\n",
      "Error parsing METAR report: UIUU 010030Z VRB01MPS 9999 NSC 11/06 Q1013 R26/60D NOSIG RMK QFE716/0954. Error: Unparsed groups in body 'R26/60D' while processing 'UIUU 010030Z VRB01MPS 9999 NSC 11/06 Q1013 R26/60D NOSIG RMK QFE716/0954'\n",
      "Error parsing METAR report: UTAA 010000Z VRB02KT 9999 NSC 22/03 Q1011 R88/70D NOSIG. Error: Unparsed groups in body 'R88/70D' while processing 'UTAA 010000Z VRB02KT 9999 NSC 22/03 Q1011 R88/70D NOSIG'\n",
      "Error parsing METAR report: UTDD 010000Z VRB01MPS 9999 NSC 17/05 Q1015 R09/D NOSIG RMK QFE693/0924. Error: Unparsed groups in body 'R09/D' while processing 'UTDD 010000Z VRB01MPS 9999 NSC 17/05 Q1015 R09/D NOSIG RMK QFE693/0924'\n",
      "Error parsing METAR report: UTDD 010030Z 00000MPS 9999 NSC 16/04 Q1015 R09/D NOSIG RMK QFE693/0924. Error: Unparsed groups in body 'R09/D' while processing 'UTDD 010030Z 00000MPS 9999 NSC 16/04 Q1015 R09/D NOSIG RMK QFE693/0924'\n",
      "Error parsing METAR report: UTSS 010000Z 14004KT 9999 NSC 17/05 Q1014 R09/70D NOSIG. Error: Unparsed groups in body 'R09/70D' while processing 'UTSS 010000Z 14004KT 9999 NSC 17/05 Q1014 R09/70D NOSIG'\n",
      "Error parsing METAR report: UTSS 010030Z 12010KT 9999 NSC 17/05 Q1014 R09/70D NOSIG. Error: Unparsed groups in body 'R09/70D' while processing 'UTSS 010030Z 12010KT 9999 NSC 17/05 Q1014 R09/70D NOSIG'\n",
      "Error parsing METAR report: UWKD 010000Z VRB01MPS 9999 FEW018 16/12 Q1005 R29/70D NOSIG RMK QFE743/0990. Error: Unparsed groups in body 'R29/70D' while processing 'UWKD 010000Z VRB01MPS 9999 FEW018 16/12 Q1005 R29/70D NOSIG RMK QFE743/0990'\n",
      "Error parsing METAR report: UWKD 010030Z 23002MPS 200V260 CAVOK 17/12 Q1005 R29/70D NOSIG RMK QFE743/0991. Error: Unparsed groups in body 'R29/70D' while processing 'UWKD 010030Z 23002MPS 200V260 CAVOK 17/12 Q1005 R29/70D NOSIG RMK QFE743/0991'\n",
      "Error parsing METAR report: UWOO 010000Z VRB01MPS 9999 SCT040CB 21/07 Q1011 R08/65D NOSIG RMK QFE747/0997. Error: Unparsed groups in body 'R08/65D' while processing 'UWOO 010000Z VRB01MPS 9999 SCT040CB 21/07 Q1011 R08/65D NOSIG RMK QFE747/0997'\n",
      "Error parsing METAR report: UWOO 010030Z VRB01MPS 9999 SCT150CB 21/07 Q1010 R26/65D NOSIG RMK QFE747/0996. Error: Unparsed groups in body 'R26/65D' while processing 'UWOO 010030Z VRB01MPS 9999 SCT150CB 21/07 Q1010 R26/65D NOSIG RMK QFE747/0996'\n",
      "Error parsing METAR report: VLLN 010000Z 04002KT 1000 TSRA BKN010 FEW023CB OVC090 23/23 Q1012 CB OVER AD NOSIG. Error: Unparsed groups in body 'CB OVER AD' while processing 'VLLN 010000Z 04002KT 1000 TSRA BKN010 FEW023CB OVC090 23/23 Q1012 CB OVER AD NOSIG'\n",
      "Error parsing METAR report: VVCT 010000Z 00000KT 7000 FEW015TCU 26/26 Q1008 NOSIG TCU/S/W. Error: Unparsed groups in body 'TCU/S/W' while processing 'VVCT 010000Z 00000KT 7000 FEW015TCU 26/26 Q1008 NOSIG TCU/S/W'\n",
      "Error parsing METAR report: WAMM 010000Z VRB02KT 9999 SCT020 31/24 Q1010 NOSIG METAR WADL 010000Z 12008KT 080V140 7000 SCT016 27/23 Q1012 NOSIG. Error: Unparsed groups in body 'METAR WADL 010000Z 12008KT 080V140 7000 SCT016 27/23 Q1012' while processing 'WAMM 010000Z VRB02KT 9999 SCT020 31/24 Q1010 NOSIG METAR WADL 010000Z 12008KT 080V140 7000 SCT016 27/23 Q1012 NOSIG'\n",
      "Error parsing METAR report: WAYY 010030Z 32002KT 9999 FEWT016 26/25 Q1013 NOSIG. Error: Unparsed groups in body 'FEWT016' while processing 'WAYY 010030Z 32002KT 9999 FEWT016 26/25 Q1013 NOSIG'\n",
      "Error parsing METAR report: YBAS 010030Z AUTO 16008KT 9999 -RA OVC006 11/10 Q1022 RERA RF00.2/001.8. Error: Unparsed groups in body 'RF00.2/001.8' while processing 'YBAS 010030Z AUTO 16008KT 9999 -RA OVC006 11/10 Q1022 RERA RF00.2/001.8'\n",
      "Error parsing METAR report: YBAS 010030Z AUTO 16008KT 9999 -RA OVC006 11/10 Q1022 RERA RF00.2/001.8. Error: Unparsed groups in body 'RF00.2/001.8' while processing 'YBAS 010030Z AUTO 16008KT 9999 -RA OVC006 11/10 Q1022 RERA RF00.2/001.8'\n",
      "Error parsing METAR report: YBAS 010030Z AUTO 16008KT 9999 -RA OVC006 11/10 Q1022 RERA RF00.2/001.8. Error: Unparsed groups in body 'RF00.2/001.8' while processing 'YBAS 010030Z AUTO 16008KT 9999 -RA OVC006 11/10 Q1022 RERA RF00.2/001.8'\n",
      "Error parsing METAR report: YBAS 010030Z AUTO 16008KT 9999 -RA OVC006 11/10 Q1022 RERA RF00/2/001/8. Error: Unparsed groups in body 'RF00/2/001/8' while processing 'YBAS 010030Z AUTO 16008KT 9999 -RA OVC006 11/10 Q1022 RERA RF00/2/001/8'\n",
      "Error parsing METAR report: YBAS 010030Z AUTO 16008KT 9999 -RA OVC006 11/10 Q1022 RERA RF00/2/001/8. Error: Unparsed groups in body 'RF00/2/001/8' while processing 'YBAS 010030Z AUTO 16008KT 9999 -RA OVC006 11/10 Q1022 RERA RF00/2/001/8'\n",
      "Error parsing METAR report: YBCG 010000Z AUTO 19008KT 9999 // SCT025 21/14 Q1023 RF00.0/000.0. Error: Unparsed groups in body 'RF00.0/000.0' while processing 'YBCG 010000Z AUTO 19008KT 9999 // SCT025 21/14 Q1023 RF00.0/000.0'\n",
      "Error parsing METAR report: YBCG 010000Z AUTO 19008KT 9999 // SCT025 21/14 Q1023 RF00.0/000.0. Error: Unparsed groups in body 'RF00.0/000.0' while processing 'YBCG 010000Z AUTO 19008KT 9999 // SCT025 21/14 Q1023 RF00.0/000.0'\n",
      "Error parsing METAR report: YBCG 010030Z AUTO 16009KT 9999 // SCT027 22/15 Q1023 RF00.0/000.0. Error: Unparsed groups in body 'RF00.0/000.0' while processing 'YBCG 010030Z AUTO 16009KT 9999 // SCT027 22/15 Q1023 RF00.0/000.0'\n",
      "Error parsing METAR report: YBCG 010030Z AUTO 16009KT 9999 // SCT027 22/15 Q1023 RF00.0/000.0. Error: Unparsed groups in body 'RF00.0/000.0' while processing 'YBCG 010030Z AUTO 16009KT 9999 // SCT027 22/15 Q1023 RF00.0/000.0'\n",
      "Error parsing METAR report: YBLN 010000Z AUTO 08004KT 9999 // NCD 10/08 Q1028 RF00.0/000.0. Error: Unparsed groups in body 'RF00.0/000.0' while processing 'YBLN 010000Z AUTO 08004KT 9999 // NCD 10/08 Q1028 RF00.0/000.0'\n",
      "Error parsing METAR report: YBLN 010030Z AUTO 10006KT 9999 // NCD 12/08 Q1029 RF00.0/000.0. Error: Unparsed groups in body 'RF00.0/000.0' while processing 'YBLN 010030Z AUTO 10006KT 9999 // NCD 12/08 Q1029 RF00.0/000.0'\n",
      "Error parsing METAR report: YBMA 010000Z AUTO 06011KT 9999 // NCD 26/14 Q1017 RF00.0/000.0. Error: Unparsed groups in body 'RF00.0/000.0' while processing 'YBMA 010000Z AUTO 06011KT 9999 // NCD 26/14 Q1017 RF00.0/000.0'\n",
      "Error parsing METAR report: YBMA 010000Z AUTO 06011KT 9999 // NCD 26/14 Q1017 RF00.0/000.0. Error: Unparsed groups in body 'RF00.0/000.0' while processing 'YBMA 010000Z AUTO 06011KT 9999 // NCD 26/14 Q1017 RF00.0/000.0'\n",
      "Error parsing METAR report: YBMA 010030Z AUTO 07008KT 9999 // NCD 26/14 Q1016 RF00.0/000.0. Error: Unparsed groups in body 'RF00.0/000.0' while processing 'YBMA 010030Z AUTO 07008KT 9999 // NCD 26/14 Q1016 RF00.0/000.0'\n",
      "Error parsing METAR report: YBMA 010030Z AUTO 07008KT 9999 // NCD 26/14 Q1016 RF00.0/000.0. Error: Unparsed groups in body 'RF00.0/000.0' while processing 'YBMA 010030Z AUTO 07008KT 9999 // NCD 26/14 Q1016 RF00.0/000.0'\n",
      "Error parsing METAR report: YBWW 010000Z AUTO 09010KT 9999 // BKN021 17/12 Q1023 RF00.0/000.0. Error: Unparsed groups in body 'RF00.0/000.0' while processing 'YBWW 010000Z AUTO 09010KT 9999 // BKN021 17/12 Q1023 RF00.0/000.0'\n",
      "Error parsing METAR report: YBWW 010030Z AUTO 07009KT 9999 // SCT021 18/12 Q1023 RF00.0/000.0. Error: Unparsed groups in body 'RF00.0/000.0' while processing 'YBWW 010030Z AUTO 07009KT 9999 // SCT021 18/12 Q1023 RF00.0/000.0'\n",
      "Error parsing METAR report: YCFS 010000Z AUTO 16008KT 9999 // NCD 19/12 Q1024 RF00.0/000.0. Error: Unparsed groups in body 'RF00.0/000.0' while processing 'YCFS 010000Z AUTO 16008KT 9999 // NCD 19/12 Q1024 RF00.0/000.0'\n",
      "Error parsing METAR report: YCFS 010030Z AUTO 15007KT 9999 // NCD 20/13 Q1024 RF00.0/000.0. Error: Unparsed groups in body 'RF00.0/000.0' while processing 'YCFS 010030Z AUTO 15007KT 9999 // NCD 20/13 Q1024 RF00.0/000.0'\n",
      "Error parsing METAR report: YCIN 010000Z AUTO 21005KT 9999 // NCD 25/14 Q1013 RF00.0/000.0. Error: Unparsed groups in body 'RF00.0/000.0' while processing 'YCIN 010000Z AUTO 21005KT 9999 // NCD 25/14 Q1013 RF00.0/000.0'\n",
      "Error parsing METAR report: YCIN 010000Z AUTO 21005KT 9999 // NCD 25/14 Q1013 RF00.0/000.0. Error: Unparsed groups in body 'RF00.0/000.0' while processing 'YCIN 010000Z AUTO 21005KT 9999 // NCD 25/14 Q1013 RF00.0/000.0'\n",
      "Error parsing METAR report: YCIN 010030Z AUTO 19006KT 9999 // NCD 28/11 Q1013 RF00.0/000.0. Error: Unparsed groups in body 'RF00.0/000.0' while processing 'YCIN 010030Z AUTO 19006KT 9999 // NCD 28/11 Q1013 RF00.0/000.0'\n",
      "Error parsing METAR report: YCIN 010030Z AUTO 19006KT 9999 // NCD 28/11 Q1013 RF00.0/000.0. Error: Unparsed groups in body 'RF00.0/000.0' while processing 'YCIN 010030Z AUTO 19006KT 9999 // NCD 28/11 Q1013 RF00.0/000.0'\n",
      "Error parsing METAR report: YFRT 010000Z AUTO 13010KT 9999 // OVC024 13/08 Q1027 RF00.0/000.0. Error: Unparsed groups in body 'RF00.0/000.0' while processing 'YFRT 010000Z AUTO 13010KT 9999 // OVC024 13/08 Q1027 RF00.0/000.0'\n",
      "Error parsing METAR report: YFRT 010000Z AUTO 13010KT 9999 // OVC024 13/08 Q1027 RF00.0/000.0. Error: Unparsed groups in body 'RF00.0/000.0' while processing 'YFRT 010000Z AUTO 13010KT 9999 // OVC024 13/08 Q1027 RF00.0/000.0'\n",
      "Error parsing METAR report: YFRT 010030Z AUTO 12012KT 9999 // SCT024 14/07 Q1027 RF00.0/000.0. Error: Unparsed groups in body 'RF00.0/000.0' while processing 'YFRT 010030Z AUTO 12012KT 9999 // SCT024 14/07 Q1027 RF00.0/000.0'\n",
      "Error parsing METAR report: YFRT 010030Z AUTO 12012KT 9999 // SCT024 14/07 Q1027 RF00.0/000.0. Error: Unparsed groups in body 'RF00.0/000.0' while processing 'YFRT 010030Z AUTO 12012KT 9999 // SCT024 14/07 Q1027 RF00.0/000.0'\n",
      "Error parsing METAR report: YGEL 010000Z AUTO 06011KT 9999 // NCD 14/04 Q1021 RF00.0/000.0. Error: Unparsed groups in body 'RF00.0/000.0' while processing 'YGEL 010000Z AUTO 06011KT 9999 // NCD 14/04 Q1021 RF00.0/000.0'\n",
      "Error parsing METAR report: YGEL 010030Z AUTO 05013KT 9999 // NCD 16/04 Q1021 RF00.0/000.0. Error: Unparsed groups in body 'RF00.0/000.0' while processing 'YGEL 010030Z AUTO 05013KT 9999 // NCD 16/04 Q1021 RF00.0/000.0'\n",
      "Error parsing METAR report: YGLA 010030Z AUTO 13009KT 9999 // BKN022 22/15 Q1021 RF00.0/000.0. Error: Unparsed groups in body 'RF00.0/000.0' while processing 'YGLA 010030Z AUTO 13009KT 9999 // BKN022 22/15 Q1021 RF00.0/000.0'\n",
      "Error parsing METAR report: YLHI 010030Z 35006KT 9999 FEW011 BKN018 20/17 Q1021 RF00.0/000.2. Error: Unparsed groups in body 'RF00.0/000.2' while processing 'YLHI 010030Z 35006KT 9999 FEW011 BKN018 20/17 Q1021 RF00.0/000.2'\n",
      "Error parsing METAR report: YLHI 010030Z 35006KT 9999 FEW011 BKN018 20/17 Q1021 RF00.0/000.2. Error: Unparsed groups in body 'RF00.0/000.2' while processing 'YLHI 010030Z 35006KT 9999 FEW011 BKN018 20/17 Q1021 RF00.0/000.2'\n",
      "Error parsing METAR report: YMAV 010000Z AUTO 36007KT 9999 // OVC051 12/07 Q1023 RF00.0/000.0. Error: Unparsed groups in body 'RF00.0/000.0' while processing 'YMAV 010000Z AUTO 36007KT 9999 // OVC051 12/07 Q1023 RF00.0/000.0'\n",
      "Error parsing METAR report: YMAV 010000Z AUTO 36007KT 9999 // OVC051 12/07 Q1023 RF00.0/000.0. Error: Unparsed groups in body 'RF00.0/000.0' while processing 'YMAV 010000Z AUTO 36007KT 9999 // OVC051 12/07 Q1023 RF00.0/000.0'\n",
      "Error parsing METAR report: YMAV 010030Z AUTO 01007KT 9999 // OVC053 12/07 Q1023 RF00.0/000.0. Error: Unparsed groups in body 'RF00.0/000.0' while processing 'YMAV 010030Z AUTO 01007KT 9999 // OVC053 12/07 Q1023 RF00.0/000.0'\n",
      "Error parsing METAR report: YMAV 010030Z AUTO 01007KT 9999 // OVC053 12/07 Q1023 RF00.0/000.0. Error: Unparsed groups in body 'RF00.0/000.0' while processing 'YMAV 010030Z AUTO 01007KT 9999 // OVC053 12/07 Q1023 RF00.0/000.0'\n",
      "Error parsing METAR report: YMHB 010000Z 31009KT 9999 FEW030 BKN063 14/07 Q1018 RF00.0/000.0. Error: Unparsed groups in body 'RF00.0/000.0' while processing 'YMHB 010000Z 31009KT 9999 FEW030 BKN063 14/07 Q1018 RF00.0/000.0'\n",
      "Error parsing METAR report: YMHB 010000Z 31009KT 9999 FEW030 BKN063 14/07 Q1018 RF00.0/000.0. Error: Unparsed groups in body 'RF00.0/000.0' while processing 'YMHB 010000Z 31009KT 9999 FEW030 BKN063 14/07 Q1018 RF00.0/000.0'\n",
      "Error parsing METAR report: YPJT 010000Z AUTO 11008KT 9999 // NCD 13/08 Q1026 RF00.0/000.0. Error: Unparsed groups in body 'RF00.0/000.0' while processing 'YPJT 010000Z AUTO 11008KT 9999 // NCD 13/08 Q1026 RF00.0/000.0'\n",
      "Error parsing METAR report: YPJT 010030Z AUTO 13007KT 9999 // NCD 14/08 Q1027 RF00.0/000.0. Error: Unparsed groups in body 'RF00.0/000.0' while processing 'YPJT 010030Z AUTO 13007KT 9999 // NCD 14/08 Q1027 RF00.0/000.0'\n",
      "Error parsing METAR report: YPKG 010000Z AUTO 12009KT 9999 // NCD 09/04 Q1027 RF00.0/000.0. Error: Unparsed groups in body 'RF00.0/000.0' while processing 'YPKG 010000Z AUTO 12009KT 9999 // NCD 09/04 Q1027 RF00.0/000.0'\n",
      "Error parsing METAR report: YPKG 010000Z AUTO 12009KT 9999 // NCD 09/04 Q1027 RF00.0/000.0. Error: Unparsed groups in body 'RF00.0/000.0' while processing 'YPKG 010000Z AUTO 12009KT 9999 // NCD 09/04 Q1027 RF00.0/000.0'\n",
      "Error parsing METAR report: YPKG 010030Z AUTO 10008KT 9999 // NCD 11/04 Q1027 RF00.0/000.0. Error: Unparsed groups in body 'RF00.0/000.0' while processing 'YPKG 010030Z AUTO 10008KT 9999 // NCD 11/04 Q1027 RF00.0/000.0'\n",
      "Error parsing METAR report: YPKG 010030Z AUTO 10008KT 9999 // NCD 11/04 Q1027 RF00.0/000.0. Error: Unparsed groups in body 'RF00.0/000.0' while processing 'YPKG 010030Z AUTO 10008KT 9999 // NCD 11/04 Q1027 RF00.0/000.0'\n",
      "Error parsing METAR report: YPKU 010000Z AUTO 15010KT 9999 // NCD 28/18 Q1013 RF00.0/000.0. Error: Unparsed groups in body 'RF00.0/000.0' while processing 'YPKU 010000Z AUTO 15010KT 9999 // NCD 28/18 Q1013 RF00.0/000.0'\n",
      "Error parsing METAR report: YPKU 010000Z AUTO 15010KT 9999 // NCD 28/18 Q1013 RF00.0/000.0. Error: Unparsed groups in body 'RF00.0/000.0' while processing 'YPKU 010000Z AUTO 15010KT 9999 // NCD 28/18 Q1013 RF00.0/000.0'\n",
      "Error parsing METAR report: YPKU 010030Z AUTO 15007KT 9999 // BKN072 29/18 Q1014 RF00.0/000.0. Error: Unparsed groups in body 'RF00.0/000.0' while processing 'YPKU 010030Z AUTO 15007KT 9999 // BKN072 29/18 Q1014 RF00.0/000.0'\n",
      "Error parsing METAR report: YPKU 010030Z AUTO 15007KT 9999 // BKN072 29/18 Q1014 RF00.0/000.0. Error: Unparsed groups in body 'RF00.0/000.0' while processing 'YPKU 010030Z AUTO 15007KT 9999 // BKN072 29/18 Q1014 RF00.0/000.0'\n",
      "Error parsing METAR report: YPLM 010000Z AUTO 19002KT 9999 // NCD 20/08 Q1014 RF00.0/000.0. Error: Unparsed groups in body 'RF00.0/000.0' while processing 'YPLM 010000Z AUTO 19002KT 9999 // NCD 20/08 Q1014 RF00.0/000.0'\n",
      "Error parsing METAR report: YPLM 010000Z AUTO 19002KT 9999 // NCD 20/08 Q1014 RF00.0/000.0. Error: Unparsed groups in body 'RF00.0/000.0' while processing 'YPLM 010000Z AUTO 19002KT 9999 // NCD 20/08 Q1014 RF00.0/000.0'\n",
      "Error parsing METAR report: YPLM 010030Z AUTO 13004KT 9999 // NCD 20/11 Q1014 RF00.0/000.0. Error: Unparsed groups in body 'RF00.0/000.0' while processing 'YPLM 010030Z AUTO 13004KT 9999 // NCD 20/11 Q1014 RF00.0/000.0'\n",
      "Error parsing METAR report: YPLM 010030Z AUTO 13004KT 9999 // NCD 20/11 Q1014 RF00.0/000.0. Error: Unparsed groups in body 'RF00.0/000.0' while processing 'YPLM 010030Z AUTO 13004KT 9999 // NCD 20/11 Q1014 RF00.0/000.0'\n",
      "Error parsing METAR report: YPPD 010000Z AUTO 07009KT 9999 // NCD 24/10 Q1014 RF00.0/000.0. Error: Unparsed groups in body 'RF00.0/000.0' while processing 'YPPD 010000Z AUTO 07009KT 9999 // NCD 24/10 Q1014 RF00.0/000.0'\n",
      "Error parsing METAR report: YPPD 010000Z AUTO 07009KT 9999 // NCD 24/10 Q1014 RF00.0/000.0. Error: Unparsed groups in body 'RF00.0/000.0' while processing 'YPPD 010000Z AUTO 07009KT 9999 // NCD 24/10 Q1014 RF00.0/000.0'\n",
      "Error parsing METAR report: YPPD 010030Z AUTO 10013KT 9999 // NCD 26/09 Q1015 RF00.0/000.0. Error: Unparsed groups in body 'RF00.0/000.0' while processing 'YPPD 010030Z AUTO 10013KT 9999 // NCD 26/09 Q1015 RF00.0/000.0'\n",
      "Error parsing METAR report: YPPD 010030Z AUTO 10013KT 9999 // NCD 26/09 Q1015 RF00.0/000.0. Error: Unparsed groups in body 'RF00.0/000.0' while processing 'YPPD 010030Z AUTO 10013KT 9999 // NCD 26/09 Q1015 RF00.0/000.0'\n",
      "Error parsing METAR report: YPTN 010000Z AUTO 06007KT 9999 // NCD 29/18 Q1014 RF00.0/000.0. Error: Unparsed groups in body 'RF00.0/000.0' while processing 'YPTN 010000Z AUTO 06007KT 9999 // NCD 29/18 Q1014 RF00.0/000.0'\n",
      "Error parsing METAR report: YPTN 010000Z AUTO 06007KT 9999 // NCD 29/18 Q1014 RF00.0/000.0. Error: Unparsed groups in body 'RF00.0/000.0' while processing 'YPTN 010000Z AUTO 06007KT 9999 // NCD 29/18 Q1014 RF00.0/000.0'\n",
      "Error parsing METAR report: YPTN 010030Z AUTO 02004KT 360V140 9999 // NCD 30/18 Q1014 RF00.0/000.0. Error: Unparsed groups in body 'RF00.0/000.0' while processing 'YPTN 010030Z AUTO 02004KT 360V140 9999 // NCD 30/18 Q1014 RF00.0/000.0'\n",
      "Error parsing METAR report: YPTN 010030Z AUTO 02004KT 360V140 9999 // NCD 30/18 Q1014 RF00.0/000.0. Error: Unparsed groups in body 'RF00.0/000.0' while processing 'YPTN 010030Z AUTO 02004KT 360V140 9999 // NCD 30/18 Q1014 RF00.0/000.0'\n",
      "Error parsing METAR report: YPWR 010000Z AUTO 15010KT 9999 // NCD 13/06 Q1024 RF00.0/000.0. Error: Unparsed groups in body 'RF00.0/000.0' while processing 'YPWR 010000Z AUTO 15010KT 9999 // NCD 13/06 Q1024 RF00.0/000.0'\n",
      "Error parsing METAR report: YPWR 010030Z AUTO 15011KT 9999 // NCD 14/05 Q1024 RF00.0/000.0. Error: Unparsed groups in body 'RF00.0/000.0' while processing 'YPWR 010030Z AUTO 15011KT 9999 // NCD 14/05 Q1024 RF00.0/000.0'\n",
      "Error parsing METAR report: YPXM 010033Z AUTO 14011KT 9999 // SCT012 24/22 Q1013 RF00.0/000.0. Error: Unparsed groups in body 'RF00.0/000.0' while processing 'YPXM 010033Z AUTO 14011KT 9999 // SCT012 24/22 Q1013 RF00.0/000.0'\n",
      "Error parsing METAR report: YPXM 010033Z AUTO 14011KT 9999 // SCT012 24/22 Q1013 RF00/0/000/0. Error: Unparsed groups in body 'RF00/0/000/0' while processing 'YPXM 010033Z AUTO 14011KT 9999 // SCT012 24/22 Q1013 RF00/0/000/0'\n",
      "Error parsing METAR report: YPXM 010033Z AUTO 14011KT 9999 // SCT012 24/22 Q1013 RF00/0/000/0. Error: Unparsed groups in body 'RF00/0/000/0' while processing 'YPXM 010033Z AUTO 14011KT 9999 // SCT012 24/22 Q1013 RF00/0/000/0'\n",
      "Error parsing METAR report: YPXM 010041Z AUTO 15011KT 9999 // BKN012 24/21 Q1013 RF00.0/000.0. Error: Unparsed groups in body 'RF00.0/000.0' while processing 'YPXM 010041Z AUTO 15011KT 9999 // BKN012 24/21 Q1013 RF00.0/000.0'\n",
      "Error parsing METAR report: YPXM 010041Z AUTO 15011KT 9999 // BKN012 24/21 Q1013 RF00/0/000/0. Error: Unparsed groups in body 'RF00/0/000/0' while processing 'YPXM 010041Z AUTO 15011KT 9999 // BKN012 24/21 Q1013 RF00/0/000/0'\n",
      "Error parsing METAR report: YPXM 010041Z AUTO 15011KT 9999 // BKN012 24/21 Q1013 RF00/0/000/0. Error: Unparsed groups in body 'RF00/0/000/0' while processing 'YPXM 010041Z AUTO 15011KT 9999 // BKN012 24/21 Q1013 RF00/0/000/0'\n",
      "Error parsing METAR report: YSDU 010000Z AUTO 05005KT 030V090 9999 // NCD 17/12 Q1023 RF00.0/000.0. Error: Unparsed groups in body 'RF00.0/000.0' while processing 'YSDU 010000Z AUTO 05005KT 030V090 9999 // NCD 17/12 Q1023 RF00.0/000.0'\n",
      "Error parsing METAR report: YSDU 010000Z AUTO 05005KT 030V090 9999 // NCD 17/12 Q1023 RF00.0/000.0. Error: Unparsed groups in body 'RF00.0/000.0' while processing 'YSDU 010000Z AUTO 05005KT 030V090 9999 // NCD 17/12 Q1023 RF00.0/000.0'\n",
      "Error parsing METAR report: YSDU 010030Z AUTO 31005KT 9999 // SCT055 18/08 Q1023 RF00.0/000.0. Error: Unparsed groups in body 'RF00.0/000.0' while processing 'YSDU 010030Z AUTO 31005KT 9999 // SCT055 18/08 Q1023 RF00.0/000.0'\n",
      "Error parsing METAR report: YSDU 010030Z AUTO 31005KT 9999 // SCT055 18/08 Q1023 RF00.0/000.0. Error: Unparsed groups in body 'RF00.0/000.0' while processing 'YSDU 010030Z AUTO 31005KT 9999 // SCT055 18/08 Q1023 RF00.0/000.0'\n",
      "Error parsing METAR report: YSTW 010030Z AUTO 35006KT 300V360 9999 // NCD 19/10 Q1024 RF00.0/000.0. Error: Unparsed groups in body 'RF00.0/000.0' while processing 'YSTW 010030Z AUTO 35006KT 300V360 9999 // NCD 19/10 Q1024 RF00.0/000.0'\n",
      "Error parsing METAR report: YSTW 010030Z AUTO 35006KT 300V360 9999 // NCD 19/10 Q1024 RF00.0/000.0. Error: Unparsed groups in body 'RF00.0/000.0' while processing 'YSTW 010030Z AUTO 35006KT 300V360 9999 // NCD 19/10 Q1024 RF00.0/000.0'\n",
      "               datetime station  temperature  dew_point  wind_speed  \\\n",
      "0      2022/09/01 00:00    AGGH         31.0       25.0   17.000000   \n",
      "1      2022/09/01 00:00    AGGH         31.0       25.0   17.000000   \n",
      "2      2022/09/01 00:00    AGGH         31.0       25.0   17.000000   \n",
      "3      2022/09/01 00:00    AGGH         31.0       25.0   17.000000   \n",
      "4      2022/09/01 00:00    AYMH         20.0       17.0    4.000000   \n",
      "...                 ...     ...          ...        ...         ...   \n",
      "33204  2022/09/01 00:00    ZYTX         18.0        9.0    7.775385   \n",
      "33205  2022/09/01 00:00    ZYTX         18.0        9.0    7.775385   \n",
      "33206  2022/09/01 00:30    ZYTX         18.0        9.0    7.775385   \n",
      "33207  2022/09/01 00:30    ZYTX         18.0        9.0    7.775385   \n",
      "33208  2022/09/01 00:30    ZYTX         18.0        9.0    7.775385   \n",
      "\n",
      "       wind_direction  visibility  altimeter  \\\n",
      "0                90.0    6.213712  29.854731   \n",
      "1                90.0    6.213712  29.854731   \n",
      "2                90.0    6.213712  29.854731   \n",
      "3                90.0    6.213712  29.854731   \n",
      "4                 NaN    6.213712  30.179560   \n",
      "...               ...         ...        ...   \n",
      "33204            30.0    6.213712  30.120500   \n",
      "33205            30.0    6.213712  30.120500   \n",
      "33206            30.0    6.213712  30.120500   \n",
      "33207            30.0    6.213712  30.120500   \n",
      "33208            30.0    6.213712  30.120500   \n",
      "\n",
      "                                                 remarks  \n",
      "0      <bound method Metar.remarks of <metar.Metar.Me...  \n",
      "1      <bound method Metar.remarks of <metar.Metar.Me...  \n",
      "2      <bound method Metar.remarks of <metar.Metar.Me...  \n",
      "3      <bound method Metar.remarks of <metar.Metar.Me...  \n",
      "4      <bound method Metar.remarks of <metar.Metar.Me...  \n",
      "...                                                  ...  \n",
      "33204  <bound method Metar.remarks of <metar.Metar.Me...  \n",
      "33205  <bound method Metar.remarks of <metar.Metar.Me...  \n",
      "33206  <bound method Metar.remarks of <metar.Metar.Me...  \n",
      "33207  <bound method Metar.remarks of <metar.Metar.Me...  \n",
      "33208  <bound method Metar.remarks of <metar.Metar.Me...  \n",
      "\n",
      "[33209 rows x 9 columns]\n"
     ]
    }
   ],
   "source": [
    "import re\n",
    "import pandas as pd\n",
    "import fetchData\n",
    "from metar import Metar\n",
    "file_path = '/home/jaosn/finalProject/data/METAR/train/part_1/metar.20220901.00Z.txt'\n",
    "with open(file_path, 'r', encoding='ISO-8859-1') as file:\n",
    "    lines = file.readlines()\n",
    "    lines = [line.strip() for line in lines if line.strip()]\n",
    "    data_entries = []\n",
    "    print(len(lines)/2)\n",
    "    date_time = None  # To keep track of the current date and time\n",
    "    \n",
    "    for i in range(0, len(lines), 2):\n",
    "        date_time = lines[i].strip()      # \n",
    "        metar_data = lines[i + 1].strip() #  METAR \n",
    "\n",
    "        try:\n",
    "            #  Metar  METAR \n",
    "            report = Metar.Metar(metar_data)\n",
    "\n",
    "            # \n",
    "            data_entries.append({\n",
    "                \"datetime\": date_time,\n",
    "                \"station\": report.station_id,\n",
    "                \"temperature\": report.temp.value() if report.temp else None,\n",
    "                \"dew_point\": report.dewpt.value() if report.dewpt else None,\n",
    "                \"wind_speed\": report.wind_speed.value(\"KT\") if report.wind_speed else None,\n",
    "                \"wind_direction\": report.wind_dir.value() if report.wind_dir else None,\n",
    "                \"visibility\": report.vis.value(\"SM\") if report.vis else None,\n",
    "                \"altimeter\": report.press.value(\"IN\") if report.press else None,\n",
    "                \"remarks\": report.remarks,\n",
    "            })\n",
    "        except Exception as e:\n",
    "            print(f\"Error parsing METAR report: {metar_data}. Error: {e}\")\n",
    "\n",
    "    df = pd.DataFrame(data_entries)\n",
    "    print(df) "
   ]
  }
 ],
 "metadata": {
  "kernelspec": {
   "display_name": "myenv",
   "language": "python",
   "name": "python3"
  },
  "language_info": {
   "codemirror_mode": {
    "name": "ipython",
    "version": 3
   },
   "file_extension": ".py",
   "mimetype": "text/x-python",
   "name": "python",
   "nbconvert_exporter": "python",
   "pygments_lexer": "ipython3",
   "version": "3.12.3"
  }
 },
 "nbformat": 4,
 "nbformat_minor": 2
}
