timestamp_15mins,temperature,dewpoint,dew_point_spread,wind_speed_mps,pressure,visibility_meters,sky_cover,altitude_ft,cumulonimbus
2023-03-21 00:00:00+00:00,9.02445652173913,3.799689440993789,5.224767080745342,8.330568206001276,1014.0169067587568,10350.264029666254,3.0,2000.0,0.0
2023-03-21 00:15:00+00:00,5.660117878192534,-5.293713163064833,10.953831041257367,6.908875448028674,1019.1374109186008,15837.099373321396,5.0,1400.0,0.0
2023-03-21 00:30:00+00:00,8.400557620817844,4.100371747211896,4.300185873605948,8.263219101123596,1016.3365273909006,9544.39920499716,0.0,1000.0,0.0
2023-03-21 00:45:00+00:00,6.470686973674228,-0.3528753508838478,6.823562324558075,7.362613200196835,1019.6041098492965,12255.583497629666,0.0,1000.0,0.0
2023-03-21 01:00:00+00:00,8.56605062248946,3.916944657656481,4.649105964832978,8.360565999120602,1015.2039459663667,9917.533873535762,0.0,1000.0,0.0
2023-03-21 01:15:00+00:00,6.226200870255825,-0.40005768937247943,6.626258559628305,7.257927380019162,1017.9010581205375,12678.6740922945,0.0,1000.0,0.0
2023-03-21 01:30:00+00:00,8.25647863199679,4.020747871821826,4.235730760174963,8.389381260010186,1016.1865733039913,9501.94465200353,0.0,1000.0,0.0
2023-03-21 01:45:00+00:00,6.655834239513013,1.2192191199350897,5.436615119577922,7.380928086383602,1018.6156850791413,11494.767563277945,1.0,400.0,0.0
2023-03-21 02:00:00+00:00,8.29287153465686,3.8753369611813326,4.417534573475528,8.368211167106322,1015.4684405278482,9720.15843613709,3.0,4000.0,0.0
2023-03-21 02:15:00+00:00,6.569963331055836,1.1635937363208597,5.406369594734976,7.574808337260142,1017.4166732890118,11602.519045901698,8.0,4200.0,0.0
2023-03-21 02:30:00+00:00,8.066602279420124,3.885481236528332,4.181121042891792,8.377525612564584,1016.2399671083213,9457.765807085407,8.0,2300.0,0.0
2023-03-21 02:45:00+00:00,6.714816574429959,2.066813630098952,4.648002944331006,7.325905078988656,1018.3019590268931,10757.888256659346,8.0,2300.0,0.0
2023-03-21 03:00:00+00:00,7.773175279755735,3.4789289516596806,4.294246328096054,8.42796908504533,1015.7347603710023,9613.187415015547,8.0,2300.0,0.0
2023-03-21 03:15:00+00:00,6.649393440200125,1.8084758959935974,4.840917544206527,7.707894209423438,1017.2636689304015,11046.407218348566,8.0,2300.0,0.0
2023-03-21 03:30:00+00:00,8.09067140653479,3.829120397093219,4.261551009441572,8.472650313751963,1016.1953632214963,9451.699355314055,8.0,2300.0,0.0
2023-03-21 03:45:00+00:00,6.620482330707285,2.401652482058137,4.218829848649148,7.634364382456968,1018.099642301335,10489.678696073903,8.0,2300.0,0.0
2023-03-21 04:00:00+00:00,8.142184007271407,3.7799755062545897,4.362208501016818,8.483554086847466,1015.8225747877234,9567.811092438376,8.0,2300.0,0.0
2023-03-21 04:15:00+00:00,6.858346282865023,2.193810124035987,4.664536158829035,7.950123690382481,1016.9986108019162,10705.168690532164,8.0,2300.0,0.0
2023-03-21 04:30:00+00:00,8.172245012277491,3.8039000177719458,4.368344994505546,8.582052823051598,1016.1890240402321,9433.992290790753,8.0,2300.0,0.0
2023-03-21 04:45:00+00:00,7.0202498389983665,2.6699166814766215,4.350333157521745,7.681821796987442,1017.7316924473198,10306.945004230389,8.0,2300.0,0.0
2023-03-21 05:00:00+00:00,8.017100728622047,3.571386049885201,4.445714678736846,8.630283918199563,1015.8818014855407,9507.630200274843,8.0,2300.0,0.0
2023-03-21 05:15:00+00:00,7.028055130104149,2.4380276000208156,4.590027530083333,8.122036834688394,1016.8738901979928,10482.008295102814,8.0,2300.0,0.0
2023-03-21 05:30:00+00:00,8.288216932856285,3.8142604209865247,4.473956511869761,8.655776342441987,1016.163104208611,9437.997012085078,8.0,2300.0,0.0
2023-03-21 05:45:00+00:00,7.142986647915616,2.8310944701930345,4.311892177722582,7.999374891175258,1017.4498124804952,10067.274270906379,8.0,2300.0,0.0
2023-03-21 06:00:00+00:00,8.233290953724993,3.6912686324505306,4.537862195359265,8.638695999204103,1015.905813215972,9514.220483106212,8.0,2300.0,0.0
2023-03-21 06:15:00+00:00,7.22414421783072,2.6435961565936554,4.5805480612370655,8.240431109115006,1016.7776869282485,10330.614405906266,8.0,2300.0,0.0
2023-03-21 06:30:00+00:00,8.425409651817269,3.8515840483626644,4.573825603454606,8.698466188258546,1016.1592229094529,9476.448360101918,8.0,2300.0,0.0
2023-03-21 06:45:00+00:00,7.457498346002362,3.0414936582113707,4.416004687790991,8.159546803615116,1017.2909117124378,10051.183250761693,5.0,3500.0,0.0
2023-03-21 07:00:00+00:00,8.269046504026468,3.6483728230327275,4.619564354811271,8.735465839019072,1015.9432983799694,9551.669854343349,3.0,4000.0,0.0
2023-03-21 07:15:00+00:00,7.409392012207793,2.809077156187498,4.600314856020296,8.349221321296193,1016.6969859749747,10247.776597267395,8.0,4700.0,0.0
2023-03-21 07:30:00+00:00,8.642274555309278,3.9085481697582356,4.7337263855510425,8.737232405615831,1016.2119878224105,9513.8884256042,0.0,1000.0,0.0
2023-03-21 07:45:00+00:00,7.811758500030854,3.2173607366380206,4.594397763392834,8.340699158294461,1017.2235369790936,10004.665655553246,0.0,1000.0,0.0
2023-03-21 08:00:00+00:00,8.572096486581456,3.7614228975242137,4.809619622708523,8.752361920323839,1015.9868225952996,9572.225820043963,0.0,1000.0,0.0
2023-03-21 08:15:00+00:00,7.71485102637695,2.9929583247215774,4.721892701655373,8.407416114757604,1016.6897828262697,10191.00491001807,0.0,1000.0,0.0
2023-03-21 08:30:00+00:00,8.973985204357653,4.02349076601998,4.950494438337674,8.793486675362221,1016.2585079944979,9558.080913414797,0.0,1000.0,0.0
2023-03-21 08:45:00+00:00,8.194338163211828,3.3785381391221243,4.815800024089706,8.378455956543947,1017.1324548140958,10021.296942676334,0.0,1000.0,0.0
2023-03-21 09:00:00+00:00,8.888803701876611,3.8635079525964278,5.024285291262984,8.816754936959857,1016.076740354044,9615.04864012855,0.0,1000.0,0.0
2023-03-21 09:15:00+00:00,8.086183194281757,3.2051838559028965,4.880999338378861,8.482497245676566,1016.6838173839329,10154.999879619463,0.0,1000.0,0.0
2023-03-21 09:30:00+00:00,9.281074601068033,4.09076194258254,5.190312658485494,8.850863073789059,1016.3175012317454,9606.26142832663,0.0,1000.0,0.0
2023-03-21 09:45:00+00:00,8.394953485633515,3.3535649561681753,5.04138852946534,8.436970976171871,1017.214827157928,10004.664132703354,0.0,1000.0,0.0
2023-03-21 10:00:00+00:00,9.247772488073473,3.9942241436065045,5.252518956786752,8.866773715029986,1016.161435418656,9654.925839763158,0.0,1000.0,0.0
2023-03-21 10:15:00+00:00,8.412256371341309,3.3417027760851368,5.070553595256173,8.554860808243124,1016.6867256295063,10138.811974804388,0.0,1000.0,0.0
2023-03-21 10:30:00+00:00,9.568089844633215,4.144592480732562,5.423497363900655,8.92713621752131,1016.3917999133919,9648.445488918043,0.0,1000.0,0.0
2023-03-21 10:45:00+00:00,8.705235397412732,3.4260441555562102,5.279191241856522,8.548591082277417,1017.2455739712423,10096.761714514743,0.0,1000.0,0.0
2023-03-21 11:00:00+00:00,9.551990589699205,4.06298611111992,5.488151892057502,8.902996754226654,1016.2226522833865,9692.856269921258,0.0,1000.0,0.0
2023-03-21 11:15:00+00:00,8.758436596390245,3.474341234823111,5.284095361567135,8.652236372520584,1016.7428290327467,10131.363803243315,0.0,1000.0,0.0
2023-03-21 11:30:00+00:00,9.88426305731132,4.219144414527723,5.665118642783597,9.004018974341456,1016.4192725259733,9675.505216495754,0.0,1000.0,0.0
2023-03-21 11:45:00+00:00,9.033482868519302,3.5095929114388107,5.52388995708049,8.713067003749295,1017.2123510185363,10101.885442007479,0.0,1000.0,0.0
2023-03-21 12:00:00+00:00,9.848446157707647,4.120716639051232,5.725942849748961,8.996649024909656,1016.2721189393347,9719.636741545615,0.0,1000.0,0.0
2023-03-21 12:15:00+00:00,9.148888808625667,3.6167274124658513,5.5321613961598155,8.731055215462352,1016.7738693125341,10107.911337984491,0.0,1000.0,0.0
2023-03-21 12:30:00+00:00,10.146794756075291,4.271213705544061,5.875581050531229,9.085194375651703,1016.3558948556516,9691.77592931407,0.0,1000.0,0.0
2023-03-21 12:45:00+00:00,9.608086419839948,3.827799486158509,5.780286933681438,8.802153770196622,1017.1273365396316,10070.437779012713,0.0,1000.0,0.0
2023-03-21 13:00:00+00:00,10.078497935598941,4.147309690998346,5.930437000952973,9.087024880365098,1016.2078598605367,9745.856571213924,0.0,1000.0,0.0
2023-03-21 13:15:00+00:00,9.584559035838124,3.7547495389271393,5.829809496910984,8.863335799671338,1016.6926313176189,10081.217311897706,0.0,1000.0,0.0
2023-03-21 13:30:00+00:00,10.394793579251555,4.297413372989039,6.097380206262516,9.146246546792879,1016.3349135545466,9709.469364945477,0.0,1000.0,0.0
2023-03-21 13:45:00+00:00,10.106832466262924,3.8541352285251134,6.252697237737811,8.951464748536937,1016.9927408663983,10063.280759800431,0.0,1000.0,0.0
2023-03-21 14:00:00+00:00,10.305234382134113,4.137449213745174,6.167009794225891,9.130063878163288,1016.1958631501759,9765.05403276507,0.0,1000.0,0.0
2023-03-21 14:15:00+00:00,10.009060368040775,3.8011039792257164,6.2079563888150595,8.97462863354677,1016.6692282885195,10073.72376391119,0.0,1000.0,0.0
2023-03-21 14:30:00+00:00,10.623349290748163,4.327548021894834,6.295801268853328,9.18517186858178,1016.2805943270573,9724.892187226735,0.0,1000.0,0.0
2023-03-21 14:45:00+00:00,10.490182643003232,3.8192713924776265,6.670911250525605,9.074756991457072,1016.907024706126,10053.574076734742,0.0,1000.0,0.0
2023-03-21 15:00:00+00:00,10.524758248282001,4.157196793942385,6.366730585785073,9.181776173778601,1016.127099107082,9789.688052003681,0.0,1000.0,0.0
2023-03-21 15:15:00+00:00,10.40534786723612,3.8528079778434803,6.552539889392639,9.051111790586589,1016.6004252671399,10064.6323703797,0.0,1000.0,0.0
2023-03-21 15:30:00+00:00,10.830798006053413,4.360596385468936,6.470201620584478,9.229184378774308,1016.243034086928,9738.589312206052,0.0,1000.0,0.0
2023-03-21 15:45:00+00:00,10.826666557478607,3.836208915127902,6.990457642350705,9.166512019211796,1016.8842152116704,10035.98638109951,0.0,1000.0,0.0
2023-03-21 16:00:00+00:00,10.691418390274691,4.187555866501659,6.503862523773034,9.235029790091414,1016.116034188926,9800.606597232676,0.0,1000.0,0.0
2023-03-21 16:15:00+00:00,10.725149841616693,3.916103680358599,6.809046161258094,9.120876229974835,1016.5504704097713,10063.850858426435,0.0,1000.0,0.0
2023-03-21 16:30:00+00:00,10.993276872351782,4.3939325091506545,6.599344363201126,9.251729673828361,1016.1596635606834,9753.217405128747,0.0,1000.0,0.0
2023-03-21 16:45:00+00:00,11.04195955818731,3.8315884325553284,7.210371125631982,9.16394766657718,1016.762066636141,10037.526419344758,0.0,1000.0,0.0
2023-03-21 17:00:00+00:00,10.877340953776958,4.281637916606927,6.595703037170029,9.23684971735838,1016.0113909170645,9812.125716027678,0.0,1000.0,0.0
2023-03-21 17:15:00+00:00,10.925092987750629,3.9585939431244443,6.966499044626184,9.149369104703018,1016.4207839926453,10057.282800468784,0.0,1000.0,0.0
2023-03-21 17:30:00+00:00,11.1013356597905,4.426403884541565,6.674931775248934,9.270046596710912,1016.1003241127534,9763.630621070282,0.0,1000.0,0.0
2023-03-21 17:45:00+00:00,11.232138634473682,3.9188101487776894,7.313328485695992,9.179383635364328,1016.6479572089862,10077.905013003246,0.0,1000.0,0.0
2023-03-21 18:00:00+00:00,11.033574157006383,4.342923713977797,6.690650443028586,9.25587087652144,1015.9740944638882,9819.64981574094,0.0,1000.0,0.0
2023-03-21 18:15:00+00:00,11.11920315678563,4.022668917598307,7.096534239187323,9.18779751090931,1016.3140260042805,10050.342539144049,0.0,1000.0,0.0
2023-03-21 18:30:00+00:00,11.163551316313765,4.467833830317874,6.695717485995892,9.276632280305225,1016.0307176961769,9767.267624169413,0.0,1000.0,0.0
2023-03-21 18:45:00+00:00,11.31127262690257,3.978992700599732,7.332279926302839,9.208444501906403,1016.4986592124982,10024.674970233671,5.0,900.0,0.0
2023-03-21 19:00:00+00:00,11.06370362170705,4.391887091024663,6.671816530682387,9.253176700976601,1015.9199667783284,9825.312091931195,5.0,400.0,0.0
2023-03-21 19:15:00+00:00,11.233033804600872,4.1011373597217275,7.131896444879144,9.199170440490724,1016.2063248924251,10038.254518064106,3.0,1800.0,0.0
2023-03-21 19:30:00+00:00,11.178225312998077,4.48755737317698,6.690667939821097,9.267215258067612,1015.981459914985,9778.270141444023,3.0,3000.0,0.0
2023-03-21 19:45:00+00:00,11.31878601237912,4.045054641120933,7.2737313712581875,9.207352343106638,1016.3891410532759,10010.480994325168,3.0,3000.0,0.0
2023-03-21 20:00:00+00:00,11.067949919054618,4.405626143292126,6.662323775762492,9.249826408436808,1015.8834404524463,9830.78077458618,3.0,3000.0,0.0
2023-03-21 20:15:00+00:00,11.260748111956284,4.143670013815803,7.11707809814048,9.200970854066737,1016.1273204547476,10032.76800445198,3.0,3000.0,0.0
2023-03-21 20:30:00+00:00,11.170841352138387,4.532004480472585,6.638836871665802,9.26060568393027,1015.9320024343945,9778.931357976344,3.0,3000.0,0.0
2023-03-21 20:45:00+00:00,11.295690644004637,4.11442976884848,7.181260875156158,9.186355664804255,1016.3278487674518,10007.879142099948,3.0,3000.0,0.0
2023-03-21 21:00:00+00:00,11.106657380216154,4.491643076875651,6.615014303340502,9.229675881012506,1015.8495881020317,9830.24667659457,3.0,3000.0,0.0
2023-03-21 21:15:00+00:00,11.280466157253763,4.254792155602619,7.025674001651143,9.195795801316686,1016.0399897516891,10028.314970710015,3.0,3000.0,0.0
2023-03-21 21:30:00+00:00,11.126878835576646,4.541195907994152,6.585682927582494,9.244022843946544,1015.8846961426632,9779.825649396998,3.0,3000.0,0.0
2023-03-21 21:45:00+00:00,11.28715309547274,4.174617395033106,7.112535700439634,9.188479317650192,1016.2590463704263,9985.327477579498,3.0,3000.0,0.0
2023-03-21 22:00:00+00:00,11.055937418158193,4.511926304110926,6.544011114047268,9.204437731268987,1015.7923631770982,9823.056689293642,3.0,3000.0,0.0
2023-03-21 22:15:00+00:00,11.234820961799116,4.308642273366484,6.926178688432632,9.174015604696246,1015.9985720621261,10013.094149920616,3.0,3000.0,0.0
2023-03-21 22:30:00+00:00,11.078789900696501,4.561187045189713,6.517602855506788,9.220022000915453,1015.8415745582902,9774.523971965002,3.0,3000.0,0.0
2023-03-21 22:45:00+00:00,11.141805330708918,4.217822667846403,6.923982662862513,9.128853243835055,1016.1712242294726,9971.675579140194,3.0,3000.0,0.0
2023-03-21 23:00:00+00:00,11.000873983864771,4.526446367560162,6.4744276163046095,9.173715022069473,1015.7571360371136,9812.130466758119,3.0,3000.0,0.0
2023-03-21 23:15:00+00:00,11.143617509403,4.374837713673603,6.768779795729397,9.13387932990319,1015.9363630982715,9994.313813080218,3.0,3000.0,0.0
2023-03-21 23:30:00+00:00,11.027940616486063,4.585821295232406,6.442119321253657,9.185796880144666,1015.7922516518261,9766.493497466849,3.0,3000.0,0.0
2023-03-21 23:45:00+00:00,11.027940616486063,4.585821295232406,6.442119321253657,9.185796880144666,1015.7922516518261,9766.493497466849,3.0,3000.0,0.0
2023-03-22 00:00:00+00:00,11.027940616486063,4.585821295232406,6.442119321253657,9.185796880144666,1015.7922516518261,9766.493497466849,3.0,3000.0,0.0
